{"type":"FeatureCollection","features":[{"type":"Feature","properties":{"id":"1","name":"Cacilhas","lines":["1","3"],"line_colors":["#01A3E1","#BCD019"]},"geometry":{"type":"Point","coordinates":[-9.1474188,38.6875499]}},{"type":"Feature","properties":{"id":"2","name":"25 de Abril","lines":["1","3"],"line_colors":["#01A3E1","#BCD019"]},"geometry":{"type":"Point","coordinates":[-9.1497026,38.684354]}},{"type":"Feature","properties":{"id":"3","name":"Gil Vicente","lines":["1","3"],"line_colors":["#01A3E1","#BCD019"]},"geometry":{"type":"Point","coordinates":[-9.1522783,38.6824971]}},{"type":"Feature","properties":{"id":"4","name":"São João Baptista","lines":["1","3"],"line_colors":["#01A3E1","#BCD019"]},"geometry":{"type":"Point","coordinates":[-9.1576163,38.679487]}},{"type":"Feature","properties":{"id":"5","name":"Almada","lines":["1","3"],"line_colors":["#01A3E1","#BCD019"]},"geometry":{"type":"Point","coordinates":[-9.1642616,38.676613]}},{"type":"Feature","properties":{"id":"6","name":"Bento Gonçalves","lines":["1","3"],"line_colors":["#01A3E1","#BCD019"]},"geometry":{"type":"Point","coordinates":[-9.1666352,38.6733336]}},{"type":"Feature","properties":{"id":"7","name":"Cova da Piedade","lines":["1","2"],"line_colors":["#01A3E1","#FFCC01"]},"geometry":{"type":"Point","coordinates":[-9.1648063,38.6676998]}},{"type":"Feature","properties":{"id":"8","name":"Parque da Paz","lines":["1","2"],"line_colors":["#01A3E1","#FFCC01"]},"geometry":{"type":"Point","coordinates":[-9.16001,38.6643628]}},{"type":"Feature","properties":{"id":"9","name":"António Gedeão","lines":["1","2"],"line_colors":["#01A3E1","#FFCC01"]},"geometry":{"type":"Point","coordinates":[-9.1573166,38.6605262]}},{"type":"Feature","properties":{"id":"10","name":"Laranjeiro","lines":["1","2"],"line_colors":["#01A3E1","#FFCC01"]},"geometry":{"type":"Point","coordinates":[-9.1543789,38.6558391]}},{"type":"Feature","properties":{"id":"11","name":"Santo Amaro","lines":["1","2"],"line_colors":["#01A3E1","#FFCC01"]},"geometry":{"type":"Point","coordinates":[-9.1531278,38.6485276]}},{"type":"Feature","properties":{"id":"12","name":"Casa do Povo","lines":["1","2"],"line_colors":["#01A3E1","#FFCC01"]},"geometry":{"type":"Point","coordinates":[-9.1517854,38.6424947]}},{"type":"Feature","properties":{"id":"13","name":"Corroios","lines":["1","2"],"line_colors":["#01A3E1","#FFCC01"]},"geometry":{"type":"Point","coordinates":[-9.1510358,38.6370865]}},{"type":"Feature","properties":{"id":"15","name":"Ramalha","lines":["2","3"],"line_colors":["#FFCC01","#BCD019"]},"geometry":{"type":"Point","coordinates":[-9.1701565,38.6689583]}},{"type":"Feature","properties":{"id":"16","name":"Pragal","lines":["2","3"],"line_colors":["#FFCC01","#BCD019"]},"geometry":{"type":"Point","coordinates":[-9.1799819,38.6662273]}},{"type":"Feature","properties":{"id":"17","name":"Boa Esperança","lines":["3"],"line_colors":["#BCD019"]},"geometry":{"type":"Point","coordinates":[-9.190349,38.6639691]}},{"type":"Feature","properties":{"id":"18","name":"Fomega","lines":["3"],"line_colors":["#BCD019"]},"geometry":{"type":"Point","coordinates":[-9.1939937,38.6655498]}},{"type":"Feature","properties":{"id":"19","name":"Monte de Caparica","lines":["3"],"line_colors":["#BCD019"]},"geometry":{"type":"Point","coordinates":[-9.2003039,38.6645555]}},{"type":"Feature","properties":{"id":"20","name":"Universidade","lines":["3"],"line_colors":["#BCD019"]},"geometry":{"type":"Point","coordinates":[-9.2071743,38.6636386]}}]}