{"type":"FeatureCollection","features":[{"type":"Feature","properties":{"name":"Linha de Sintra: Lisboa Rossio → Sintra","ref":"U LRO-SIA","colour":"#A41E45","from":"Lisboa Rossio","to":"Sintra","operator":"Comboios de Portugal","network":"CP Lisboa","route":"train","service":"commuter","gtfs:route_id":"25-94_59006-94_61101","gtfs:shape_id":"shape-95","@id":"relation/1903811","length_km":27.46},"geometry":{"type":"MultiLineString","coordinates":[[[-9.386188,38.798697],[-9.386165,38.798714],[-9.385394,38.79929],[-9.384624,38.799857],[-9.384532,38.799918],[-9.384438,38.79998],[-9.384377,38.80002],[-9.384363,38.800029],[-9.384275,38.800085],[-9.384172,38.800155],[-9.384092,38.800211],[-9.38402,38.800264],[-9.383894,38.800359],[-9.383272,38.800821],[-9.38265,38.80123],[-9.382523,38.801316],[-9.382288,38.801446],[-9.382183,38.801504],[-9.38207,38.801556],[-9.381923,38.801627],[-9.3818,38.801682],[-9.381527,38.801785],[-9.381326,38.801847],[-9.381111,38.801909],[-9.380781,38.801993],[-9.380434,38.802057],[-9.380324,38.802069],[-9.380091,38.802095],[-9.379701,38.802139],[-9.378735,38.802168],[-9.377638,38.802196],[-9.376372,38.802228],[-9.375242,38.802256],[-9.375113,38.802259],[-9.374427,38.802276],[-9.373892,38.802261],[-9.373514,38.802228],[-9.373294,38.802206],[-9.373206,38.802197],[-9.372841,38.802152],[-9.372436,38.802074],[-9.371923,38.801969],[-9.370481,38.801635],[-9.369962,38.801518],[-9.368989,38.801299],[-9.368647,38.801237],[-9.368513,38.801215],[-9.36845,38.801204],[-9.368265,38.801176],[-9.368085,38.801155],[-9.367937,38.80114],[-9.367767,38.801126],[-9.367559,38.801113],[-9.367325,38.801107],[-9.367126,38.801107],[-9.366924,38.80111],[-9.366762,38.801116],[-9.366533,38.80113],[-9.366271,38.801154],[-9.365984,38.801186],[-9.365533,38.801245],[-9.364914,38.801328],[-9.364247,38.801416],[-9.363836,38.801463],[-9.363618,38.80148],[-9.363437,38.801491],[-9.363218,38.801498],[-9.362986,38.801502],[-9.362796,38.801498],[-9.362575,38.801489],[-9.362391,38.801479],[-9.362186,38.801461],[-9.362004,38.801443],[-9.361824,38.801418],[-9.361645,38.801391],[-9.36147,38.801361],[-9.361276,38.801323],[-9.361107,38.801286],[-9.360887,38.801233],[-9.360688,38.801181],[-9.360244,38.801057],[-9.357536,38.800292],[-9.35359,38.799176],[-9.351544,38.798598],[-9.351413,38.79856],[-9.351082,38.798466],[-9.349993,38.798159],[-9.349044,38.797891],[-9.348749,38.797808],[-9.348501,38.797742],[-9.348289,38.797688],[-9.348119,38.797645],[-9.347953,38.797608],[-9.347492,38.797509],[-9.346866,38.797403],[-9.34668,38.797382],[-9.346322,38.797342],[-9.345901,38.797307],[-9.345407,38.797279],[-9.344814,38.797261],[-9.344322,38.797262],[-9.343847,38.797298],[-9.343359,38.797338],[-9.342898,38.797395],[-9.342839,38.797404],[-9.342485,38.79746],[-9.342397,38.797474],[-9.34221,38.797503],[-9.341366,38.797636],[-9.339973,38.79786],[-9.33992,38.797866],[-9.339716,38.797889],[-9.339558,38.797907],[-9.339307,38.797922],[-9.338903,38.797938],[-9.338567,38.797931],[-9.338149,38.797912],[-9.337897,38.797889],[-9.337618,38.797846],[-9.337369,38.797796],[-9.337047,38.797706],[-9.336733,38.797616],[-9.336355,38.797493],[-9.33576,38.797225],[-9.335389,38.79702],[-9.33505,38.796795],[-9.334771,38.796583],[-9.334662,38.796492],[-9.334317,38.796204],[-9.333948,38.795886],[-9.333579,38.79557],[-9.333366,38.79538],[-9.333249,38.795275],[-9.332936,38.794987],[-9.33277,38.794831],[-9.332018,38.794125],[-9.331803,38.793928],[-9.331746,38.793875],[-9.331571,38.793719],[-9.331306,38.793489],[-9.331,38.793227],[-9.330718,38.792991],[-9.330455,38.792772],[-9.330242,38.7926],[-9.330037,38.792442],[-9.329944,38.792371],[-9.329063,38.791693],[-9.328891,38.79156],[-9.328823,38.791506],[-9.328729,38.791431],[-9.328619,38.791341],[-9.328594,38.79132],[-9.328502,38.791244],[-9.328387,38.791145],[-9.328253,38.791024],[-9.328113,38.790894],[-9.328026,38.790808],[-9.327958,38.790742],[-9.327841,38.790612],[-9.327741,38.790493],[-9.327672,38.790404],[-9.327604,38.790309],[-9.32753,38.790194],[-9.327488,38.790125],[-9.327442,38.790045],[-9.327401,38.789965],[-9.32736,38.789882],[-9.327325,38.789799],[-9.327288,38.789709],[-9.327254,38.789617],[-9.327224,38.789523],[-9.32719,38.789408],[-9.327157,38.789288],[-9.326907,38.788258],[-9.326751,38.787654],[-9.326584,38.787261],[-9.326433,38.786959],[-9.326259,38.786703],[-9.326077,38.786475],[-9.325993,38.78639],[-9.325809,38.786191],[-9.325606,38.786012],[-9.32541,38.785867],[-9.325328,38.785818],[-9.325242,38.785757],[-9.325136,38.785688],[-9.325033,38.785623],[-9.325016,38.785613],[-9.324908,38.785551],[-9.32476,38.785472],[-9.324654,38.78542],[-9.324538,38.785367],[-9.324416,38.785317],[-9.324292,38.785266],[-9.324132,38.785205],[-9.323939,38.78514],[-9.323821,38.785103],[-9.323504,38.785005],[-9.322719,38.784773],[-9.322095,38.784589],[-9.319271,38.783755],[-9.319126,38.783712],[-9.318948,38.78366],[-9.317375,38.783205],[-9.314835,38.78245],[-9.314308,38.782303],[-9.314263,38.782293],[-9.314236,38.782287],[-9.313838,38.782193],[-9.313434,38.782128],[-9.313082,38.782086],[-9.312765,38.782068],[-9.312307,38.782066],[-9.311825,38.782088],[-9.31129,38.782157],[-9.310712,38.782252],[-9.310245,38.782342],[-9.309826,38.782406],[-9.30963,38.782429],[-9.309415,38.782448],[-9.309205,38.78246],[-9.309019,38.782464],[-9.308846,38.782462],[-9.308666,38.782454],[-9.308489,38.782441],[-9.308284,38.782419],[-9.30811,38.782397],[-9.30795,38.782367],[-9.307791,38.782335],[-9.30764,38.782301],[-9.307463,38.782254],[-9.307298,38.782204],[-9.307143,38.782151],[-9.307018,38.782102],[-9.306932,38.782066],[-9.306813,38.782011],[-9.306703,38.781957],[-9.306596,38.781901],[-9.306491,38.781841],[-9.306359,38.781758],[-9.306253,38.781687],[-9.306133,38.781597],[-9.306025,38.78151],[-9.30591,38.781409],[-9.30582,38.781325],[-9.305728,38.781227],[-9.305636,38.781125],[-9.305545,38.781012],[-9.305504,38.780953],[-9.305455,38.78088],[-9.305431,38.780845],[-9.305364,38.78073],[-9.305305,38.780622],[-9.305255,38.780518],[-9.305206,38.780396],[-9.305155,38.78025],[-9.305123,38.78014],[-9.305091,38.780009],[-9.305075,38.779927],[-9.30506,38.779814],[-9.30505,38.779694],[-9.305046,38.779571],[-9.305051,38.779433],[-9.305064,38.779293],[-9.30508,38.779183],[-9.305101,38.779067],[-9.305125,38.778969],[-9.305194,38.778706],[-9.305455,38.77784],[-9.305473,38.777776],[-9.305495,38.777691],[-9.305513,38.777611],[-9.305528,38.777528],[-9.305545,38.777434],[-9.305557,38.777352],[-9.305565,38.777272],[-9.305572,38.777184],[-9.305576,38.777106],[-9.305577,38.777023],[-9.305575,38.77694],[-9.305569,38.776856],[-9.305563,38.776784],[-9.305554,38.776713],[-9.305539,38.776627],[-9.305527,38.776569],[-9.305512,38.776496],[-9.305496,38.776432],[-9.305477,38.776363],[-9.305453,38.776287],[-9.305432,38.776224],[-9.305408,38.776159],[-9.305378,38.776083],[-9.305343,38.776006],[-9.305312,38.775939],[-9.305282,38.775879],[-9.30524,38.775802],[-9.305203,38.775737],[-9.305161,38.775671],[-9.305118,38.775608],[-9.305071,38.775539],[-9.305015,38.775464],[-9.304961,38.775395],[-9.304893,38.775314],[-9.304842,38.775256],[-9.304772,38.77518],[-9.304715,38.775121],[-9.304654,38.775061],[-9.304597,38.775006],[-9.304547,38.774959],[-9.304391,38.774817],[-9.304237,38.774683],[-9.304028,38.774502],[-9.303857,38.774353],[-9.303407,38.773964],[-9.303315,38.773884],[-9.302825,38.773459],[-9.302495,38.773172],[-9.302345,38.773036],[-9.302273,38.772969],[-9.302196,38.772895],[-9.302141,38.772839],[-9.302075,38.77277],[-9.302016,38.772706],[-9.301957,38.772637],[-9.301901,38.772573],[-9.301846,38.772505],[-9.301796,38.77244],[-9.301738,38.772363],[-9.301646,38.772234],[-9.301541,38.77208],[-9.301358,38.771801],[-9.30115,38.771482],[-9.300931,38.771153],[-9.300622,38.770702],[-9.300545,38.770589],[-9.300202,38.770055],[-9.300158,38.769985],[-9.299959,38.769656],[-9.29988,38.769522],[-9.299743,38.769279],[-9.29958,38.768978],[-9.299425,38.768648],[-9.299316,38.768423],[-9.299202,38.768165],[-9.29911,38.767945],[-9.299069,38.767845],[-9.298985,38.767665],[-9.298901,38.767488],[-9.298864,38.7674],[-9.29849,38.766511],[-9.298171,38.765753],[-9.298106,38.765599],[-9.298041,38.765444],[-9.29796,38.765274],[-9.297874,38.765097],[-9.29784,38.765032],[-9.297792,38.764939],[-9.297702,38.764772],[-9.297601,38.764596],[-9.297533,38.76448],[-9.297442,38.764333],[-9.29733,38.764164],[-9.297236,38.764027],[-9.297138,38.763891],[-9.297002,38.76371],[-9.296938,38.763627],[-9.296838,38.763499],[-9.296761,38.763398],[-9.296697,38.763312],[-9.296635,38.763236],[-9.296559,38.763148],[-9.296492,38.763073],[-9.296422,38.763],[-9.296333,38.762917],[-9.296246,38.762839],[-9.296159,38.762762],[-9.29604,38.762657],[-9.295912,38.762544],[-9.295719,38.762376],[-9.295622,38.762288],[-9.295447,38.762122],[-9.295301,38.761975],[-9.295217,38.761889],[-9.295127,38.761787],[-9.29504,38.761681],[-9.294964,38.761589],[-9.294865,38.761459],[-9.29477,38.761321],[-9.294697,38.761207],[-9.294623,38.76109],[-9.294559,38.760985],[-9.294522,38.760923],[-9.294287,38.760516],[-9.294181,38.760331],[-9.294069,38.760149],[-9.293962,38.759983],[-9.293852,38.759824],[-9.293735,38.759666],[-9.29361,38.75951],[-9.293479,38.759357],[-9.293341,38.759207],[-9.293195,38.759056],[-9.293044,38.758915],[-9.292875,38.758764],[-9.292701,38.758617],[-9.291486,38.75766],[-9.291312,38.757518],[-9.291222,38.757441],[-9.291113,38.757346],[-9.291009,38.757249],[-9.290917,38.75716],[-9.290829,38.75707],[-9.290757,38.756989],[-9.290689,38.756911],[-9.290617,38.756822],[-9.290536,38.756715],[-9.290478,38.756634],[-9.290413,38.756533],[-9.290349,38.756426],[-9.290318,38.756369],[-9.290308,38.756352],[-9.290246,38.756232],[-9.2902,38.75613],[-9.29013,38.755958],[-9.29006,38.755763],[-9.289945,38.755385],[-9.289794,38.754873],[-9.289672,38.754476],[-9.289619,38.754323],[-9.289559,38.754166],[-9.289502,38.754029],[-9.289422,38.753856],[-9.289348,38.75372],[-9.289268,38.753585],[-9.289185,38.753462],[-9.289084,38.753325],[-9.28898,38.753199],[-9.288873,38.753078],[-9.288754,38.752958],[-9.288635,38.752848],[-9.288502,38.752735],[-9.288374,38.752634],[-9.288224,38.752527],[-9.288082,38.752436],[-9.287926,38.752345],[-9.287769,38.75226],[-9.287604,38.752178],[-9.287439,38.752104],[-9.287299,38.752049],[-9.287125,38.751986],[-9.286901,38.751915],[-9.286844,38.751899],[-9.286736,38.751869],[-9.286721,38.751866],[-9.286568,38.75183],[-9.286384,38.751792],[-9.286182,38.751756],[-9.285962,38.751722],[-9.285736,38.751692],[-9.285547,38.751668],[-9.285071,38.751611],[-9.284646,38.751562],[-9.28391,38.751479],[-9.283362,38.751411],[-9.283154,38.751381],[-9.282905,38.751339],[-9.282733,38.751305],[-9.28251,38.751253],[-9.282365,38.751216],[-9.282279,38.75119],[-9.282106,38.751137],[-9.28192,38.751072],[-9.281728,38.750997],[-9.281559,38.750926],[-9.281371,38.750838],[-9.281228,38.750765],[-9.281067,38.750674],[-9.280924,38.750586],[-9.280793,38.750503],[-9.280711,38.750447],[-9.280584,38.750361],[-9.280467,38.750276],[-9.280279,38.750138],[-9.280191,38.750073],[-9.279404,38.749492],[-9.279217,38.749357],[-9.279015,38.749213],[-9.278914,38.749142],[-9.278763,38.749041],[-9.278626,38.748956],[-9.278508,38.748886],[-9.278375,38.748812],[-9.278233,38.748738],[-9.278059,38.748658],[-9.277857,38.748573],[-9.277631,38.748491],[-9.277377,38.748412],[-9.277121,38.748345],[-9.276874,38.748294],[-9.276636,38.748256],[-9.276409,38.74823],[-9.276149,38.748212],[-9.275883,38.748205],[-9.275621,38.748209],[-9.275319,38.748229],[-9.275011,38.748266],[-9.274714,38.748314],[-9.274483,38.748357],[-9.27403,38.748447],[-9.272238,38.748801],[-9.271342,38.748979],[-9.271142,38.74902],[-9.27092,38.749066],[-9.270596,38.749138],[-9.270342,38.749201],[-9.270188,38.749244],[-9.269988,38.749305],[-9.269765,38.749381],[-9.26956,38.74946],[-9.269397,38.749526],[-9.269256,38.74959],[-9.269079,38.749674],[-9.268921,38.749759],[-9.268654,38.749912],[-9.268465,38.750034],[-9.268172,38.75024],[-9.267973,38.750406],[-9.267845,38.750523],[-9.267699,38.750658],[-9.26767,38.750688],[-9.267591,38.750771],[-9.267563,38.7508],[-9.267435,38.75094],[-9.267331,38.751065],[-9.26721,38.751224],[-9.267087,38.751402],[-9.266993,38.751558],[-9.266923,38.751679],[-9.26685,38.751818],[-9.266797,38.751929],[-9.266742,38.752052],[-9.266693,38.752169],[-9.266649,38.75228],[-9.26659,38.752435],[-9.266543,38.752565],[-9.266522,38.752626],[-9.266475,38.752757],[-9.266307,38.753224],[-9.266192,38.75353],[-9.266081,38.753812],[-9.266034,38.753926],[-9.265968,38.754073],[-9.265907,38.7542],[-9.265812,38.754392],[-9.265768,38.754476],[-9.265724,38.75456],[-9.265423,38.755049],[-9.265329,38.75519],[-9.265185,38.755407],[-9.264834,38.755858],[-9.264514,38.756236],[-9.264439,38.75632],[-9.26435,38.756418],[-9.264182,38.756594],[-9.263837,38.756952],[-9.263548,38.757258],[-9.26322,38.757595],[-9.262878,38.757953],[-9.262732,38.758101],[-9.262559,38.758262],[-9.262409,38.758392],[-9.262251,38.758516],[-9.262204,38.758549],[-9.26204,38.758662],[-9.261816,38.758796],[-9.261595,38.758907],[-9.261344,38.759012],[-9.261103,38.759096],[-9.260853,38.759168],[-9.260618,38.759222],[-9.260376,38.759265],[-9.260138,38.759287],[-9.25989,38.759302],[-9.25961,38.759304],[-9.259423,38.759292],[-9.259204,38.75927],[-9.259008,38.759242],[-9.258792,38.759204],[-9.258629,38.759168],[-9.258584,38.759158],[-9.258372,38.759106],[-9.258231,38.759069],[-9.25752,38.758847],[-9.256786,38.758618],[-9.256565,38.758549],[-9.256479,38.758523],[-9.256153,38.758431],[-9.255828,38.758351],[-9.255638,38.758312],[-9.255432,38.758274],[-9.255218,38.758243],[-9.255019,38.758221],[-9.254817,38.758203],[-9.254624,38.7582],[-9.25443,38.758198],[-9.254246,38.758206],[-9.254062,38.75822],[-9.253882,38.75824],[-9.253701,38.758266],[-9.253528,38.7583],[-9.253356,38.758338],[-9.253199,38.75838],[-9.253022,38.758432],[-9.252892,38.758476],[-9.252741,38.758533],[-9.252593,38.758595],[-9.252448,38.758663],[-9.252318,38.758729],[-9.252193,38.758797],[-9.252072,38.758869],[-9.251949,38.758948],[-9.251843,38.759027],[-9.25174,38.759107],[-9.251637,38.759191],[-9.25154,38.759274],[-9.251447,38.759364],[-9.251355,38.759455],[-9.251277,38.759538],[-9.251204,38.759619],[-9.251074,38.759768],[-9.250697,38.760212],[-9.250573,38.760351],[-9.250484,38.76045],[-9.25038,38.760554],[-9.250278,38.76065],[-9.250147,38.760766],[-9.25,38.76088],[-9.249831,38.760996],[-9.249653,38.761104],[-9.249465,38.761203],[-9.249273,38.761293],[-9.249064,38.761377],[-9.248865,38.761444],[-9.248659,38.761502],[-9.248458,38.761548],[-9.248202,38.761596],[-9.248097,38.761612],[-9.247939,38.761635],[-9.247599,38.761669],[-9.247216,38.761695],[-9.246981,38.761708],[-9.246793,38.761715],[-9.246743,38.761717],[-9.245401,38.761766],[-9.244911,38.761783],[-9.244573,38.761795],[-9.244162,38.76181],[-9.242619,38.761866],[-9.242167,38.761877],[-9.241942,38.76188],[-9.241861,38.761878],[-9.241721,38.761875],[-9.241485,38.761865],[-9.241249,38.76185],[-9.241093,38.761836],[-9.240924,38.761815],[-9.240764,38.761794],[-9.240602,38.761768],[-9.240317,38.761722],[-9.240054,38.761666],[-9.239873,38.761621],[-9.239696,38.761573],[-9.239493,38.76151],[-9.23931,38.761446],[-9.239126,38.761368],[-9.238957,38.761286],[-9.238776,38.761198],[-9.238269,38.760918],[-9.236932,38.760182],[-9.23682,38.76012],[-9.236103,38.759726],[-9.235173,38.759214],[-9.234966,38.75911],[-9.234779,38.759019],[-9.234652,38.758957],[-9.234247,38.758774],[-9.2338,38.758574],[-9.233105,38.758261],[-9.232886,38.758171],[-9.232711,38.758097],[-9.232535,38.758027],[-9.232317,38.757944],[-9.232167,38.757889],[-9.231083,38.757487],[-9.230898,38.757413],[-9.230716,38.75734],[-9.230546,38.757265],[-9.230392,38.757192],[-9.23024,38.757116],[-9.230086,38.757032],[-9.229902,38.756923],[-9.22977,38.756831],[-9.229647,38.756743],[-9.229492,38.756628],[-9.229379,38.756537],[-9.229247,38.756427],[-9.229106,38.7563],[-9.228965,38.756161],[-9.228818,38.756],[-9.228719,38.755884],[-9.228618,38.755762],[-9.228544,38.75567],[-9.228462,38.755561],[-9.228381,38.755439],[-9.228309,38.755325],[-9.228234,38.755196],[-9.228167,38.755072],[-9.228106,38.75495],[-9.228035,38.7548],[-9.227996,38.754716],[-9.227882,38.754465],[-9.227687,38.754015],[-9.227509,38.753626],[-9.227436,38.753471],[-9.227358,38.753319],[-9.227277,38.753172],[-9.22718,38.753015],[-9.227093,38.752887],[-9.226997,38.752762],[-9.226893,38.752636],[-9.226788,38.752518],[-9.226674,38.752404],[-9.226555,38.752296],[-9.226422,38.752181],[-9.226305,38.752088],[-9.226194,38.752007],[-9.226096,38.75194],[-9.226021,38.751892],[-9.225867,38.751797],[-9.225717,38.751714],[-9.225555,38.75163],[-9.225405,38.75156],[-9.225219,38.751484],[-9.225045,38.751417],[-9.224854,38.751354],[-9.224671,38.751299],[-9.224516,38.751255],[-9.224341,38.751208],[-9.224325,38.751204],[-9.223972,38.751113],[-9.223942,38.751105],[-9.221559,38.750512],[-9.221408,38.75047],[-9.221268,38.750431],[-9.221151,38.750397],[-9.220984,38.750345],[-9.220814,38.75029],[-9.220662,38.750236],[-9.220454,38.750158],[-9.22026,38.750081],[-9.220052,38.749992],[-9.219888,38.74992],[-9.219748,38.749855],[-9.21961,38.749787],[-9.219495,38.749728],[-9.219403,38.749682],[-9.219184,38.749564],[-9.2187,38.749292],[-9.218498,38.74918],[-9.216799,38.748227],[-9.216647,38.748142],[-9.216457,38.748038],[-9.216292,38.747948],[-9.216173,38.747886],[-9.216078,38.747837],[-9.215982,38.74779],[-9.215879,38.747741],[-9.215794,38.747701],[-9.215721,38.747667],[-9.215604,38.747614],[-9.21548,38.74756],[-9.215371,38.747514],[-9.215196,38.747442],[-9.215,38.747366],[-9.214851,38.74731],[-9.214747,38.747273],[-9.214681,38.74725],[-9.214527,38.747197],[-9.214425,38.747164],[-9.214385,38.747151],[-9.214217,38.747099],[-9.21402,38.747041],[-9.213758,38.746969],[-9.213482,38.746895],[-9.213281,38.746841],[-9.212899,38.746739],[-9.212641,38.746672],[-9.212354,38.746603],[-9.212103,38.746547],[-9.212019,38.746529],[-9.211796,38.746482],[-9.211527,38.746425],[-9.211269,38.746367],[-9.211042,38.746312],[-9.210769,38.746241],[-9.210243,38.746099],[-9.208013,38.745501],[-9.206146,38.745],[-9.206003,38.744963],[-9.205865,38.744928],[-9.205704,38.744888],[-9.205569,38.744856],[-9.205441,38.744828],[-9.205304,38.7448],[-9.205149,38.74477],[-9.20505,38.744753],[-9.205013,38.744747],[-9.204918,38.744733],[-9.20489,38.744729],[-9.204768,38.74471],[-9.204597,38.744685],[-9.204429,38.744666],[-9.204274,38.744649],[-9.204085,38.744632],[-9.203911,38.744617],[-9.203738,38.744602],[-9.203523,38.744585],[-9.203315,38.744569],[-9.202723,38.74452],[-9.202238,38.744481],[-9.201213,38.744399],[-9.200892,38.744371],[-9.200846,38.744367],[-9.200565,38.744344],[-9.20035,38.744329],[-9.200135,38.744316],[-9.199627,38.744286],[-9.198324,38.744221],[-9.198243,38.744216],[-9.19691,38.744148],[-9.196872,38.744146],[-9.196865,38.744146],[-9.196402,38.744122],[-9.195916,38.744097],[-9.1957,38.744086],[-9.195449,38.744073],[-9.195203,38.744062],[-9.195083,38.744057],[-9.194929,38.744052],[-9.194718,38.744047],[-9.194687,38.744046],[-9.194494,38.744045],[-9.194266,38.744047],[-9.194118,38.74405],[-9.193953,38.744055],[-9.19379,38.744062],[-9.193535,38.744076],[-9.193307,38.744093],[-9.193119,38.74411],[-9.192875,38.744134],[-9.192594,38.744165],[-9.192309,38.744198],[-9.188548,38.744633],[-9.188272,38.744662],[-9.187983,38.744687],[-9.187751,38.744701],[-9.187464,38.744713],[-9.187427,38.744714],[-9.187204,38.744718],[-9.186944,38.744716],[-9.186683,38.74471],[-9.186427,38.744698],[-9.18618,38.744681],[-9.185911,38.744656],[-9.185727,38.744635],[-9.18554,38.744611],[-9.185408,38.744591],[-9.185198,38.744559],[-9.185004,38.744524],[-9.184839,38.744492],[-9.184654,38.744453],[-9.184476,38.744413],[-9.184277,38.744363],[-9.184136,38.744324],[-9.184064,38.744305],[-9.183888,38.744254],[-9.183786,38.744224],[-9.183539,38.744146],[-9.183305,38.744065],[-9.183068,38.743977],[-9.182839,38.743886],[-9.182635,38.743801],[-9.18237,38.743689],[-9.179586,38.742501],[-9.178869,38.742195],[-9.178635,38.742091],[-9.178447,38.742007],[-9.178235,38.741906],[-9.178023,38.7418],[-9.177874,38.741724],[-9.177691,38.741626],[-9.177477,38.741507],[-9.176246,38.740811],[-9.175967,38.740649],[-9.17558,38.740428],[-9.175342,38.740293],[-9.174872,38.740026],[-9.174736,38.739945],[-9.174626,38.739875],[-9.174495,38.739791],[-9.174462,38.739769],[-9.174403,38.739729],[-9.174174,38.73957],[-9.173704,38.739214],[-9.1736,38.739143],[-9.173498,38.739076],[-9.173394,38.739014],[-9.173294,38.738958],[-9.173195,38.738909],[-9.17306,38.738845],[-9.172923,38.738788],[-9.172784,38.738736],[-9.172651,38.738692],[-9.172501,38.73865],[-9.172346,38.73861],[-9.17221,38.738578],[-9.172066,38.738545],[-9.17179,38.738483],[-9.171574,38.738432],[-9.171404,38.738382],[-9.171265,38.738337],[-9.171139,38.738293],[-9.171026,38.738245],[-9.170876,38.738172],[-9.170759,38.738109],[-9.170622,38.73803],[-9.170521,38.737967],[-9.170397,38.737882],[-9.170281,38.737794],[-9.170171,38.737705],[-9.170069,38.737616],[-9.169983,38.737536],[-9.169888,38.737442],[-9.169809,38.737354],[-9.169736,38.737264],[-9.169662,38.737155],[-9.169593,38.737039],[-9.169547,38.736956],[-9.169496,38.736853],[-9.169456,38.736755],[-9.169416,38.736646],[-9.169393,38.736574],[-9.169368,38.736482],[-9.169336,38.736348],[-9.169316,38.736244],[-9.169292,38.736123],[-9.169262,38.735976],[-9.169237,38.735857],[-9.169215,38.735768],[-9.169191,38.735679],[-9.169162,38.735588],[-9.169129,38.735499],[-9.169095,38.735416],[-9.169055,38.735325],[-9.16901,38.735233],[-9.16894,38.73512],[-9.168896,38.735053],[-9.168846,38.734977],[-9.168745,38.73483],[-9.168592,38.734609],[-9.168538,38.734525],[-9.168478,38.734428],[-9.168429,38.734339],[-9.168382,38.734253],[-9.168348,38.734185],[-9.168314,38.734106],[-9.168292,38.734054],[-9.168281,38.734028],[-9.168249,38.733947],[-9.16822,38.73387],[-9.168186,38.733768],[-9.1681,38.733491],[-9.167881,38.732785],[-9.16763,38.731968],[-9.167589,38.731845],[-9.167543,38.731713],[-9.167511,38.731643],[-9.167474,38.731563],[-9.167436,38.731487],[-9.167395,38.731411],[-9.167344,38.731317],[-9.167322,38.731278],[-9.167297,38.731234],[-9.167266,38.731187],[-9.167233,38.73114],[-9.167185,38.731077],[-9.16712,38.730995],[-9.167058,38.730922],[-9.166995,38.730853],[-9.166911,38.73077],[-9.16684,38.730702],[-9.166787,38.730656],[-9.166765,38.730638],[-9.166688,38.730577],[-9.166592,38.730508],[-9.166493,38.730443],[-9.166363,38.73036],[-9.166277,38.730303],[-9.165551,38.729832],[-9.150667,38.720176],[-9.144166,38.715953],[-9.143886,38.715773],[-9.143841,38.715745],[-9.143582,38.715577],[-9.143289,38.715385],[-9.143229,38.71534],[-9.143019,38.715192],[-9.142837,38.7151],[-9.142589,38.71497],[-9.142377,38.714833],[-9.14142,38.714212],[-9.141394,38.714195]]]}},{"type":"Feature","properties":{"name":"Linha da Azambuja: Alcântara-Terra → Castanheira do Ribatejo","ref":"U ATE-CRI","colour":"#777777","from":"Alcântara-Terra","to":"Castanheira do Ribatejo","operator":"Comboios de Portugal","network":"CP Lisboa","route":"train","service":"commuter","gtfs:route_id":"25-94_67025-94_31310","gtfs:shape_id":"shape-71","@id":"relation/7823073","length_km":40.79},"geometry":{"type":"MultiLineString","coordinates":[[[-8.965378,38.988922],[-8.965546,38.988683],[-8.965957,38.9881],[-8.966299,38.987616],[-8.966431,38.987429],[-8.967062,38.986537],[-8.96772,38.985607],[-8.967982,38.985236],[-8.968323,38.984827],[-8.969094,38.983897],[-8.969208,38.983739],[-8.96951,38.983317],[-8.969891,38.98285],[-8.970834,38.981523],[-8.971558,38.980498],[-8.971896,38.980021],[-8.972695,38.978892],[-8.973208,38.978167],[-8.973762,38.977383],[-8.973914,38.977168],[-8.973932,38.977142],[-8.974082,38.976931],[-8.974107,38.976894],[-8.974266,38.97667],[-8.974908,38.975763],[-8.976776,38.97312],[-8.977997,38.971389],[-8.979984,38.968572],[-8.981891,38.965843],[-8.981921,38.9658],[-8.983227,38.963984],[-8.983314,38.963859],[-8.983551,38.963513],[-8.983576,38.963477],[-8.983809,38.963075],[-8.984032,38.962654],[-8.984239,38.962189],[-8.984372,38.961806],[-8.984487,38.961408],[-8.984576,38.961016],[-8.984647,38.960646],[-8.984688,38.960356],[-8.984723,38.959838],[-8.984759,38.959429],[-8.984834,38.959031],[-8.984913,38.958565],[-8.985023,38.958109],[-8.985148,38.957706],[-8.985302,38.957305],[-8.985451,38.956962],[-8.985507,38.956852],[-8.985826,38.956191],[-8.986175,38.95547],[-8.986252,38.955309],[-8.986457,38.954885],[-8.98656,38.954689],[-8.986699,38.954426],[-8.986847,38.954182],[-8.987007,38.953944],[-8.987213,38.953671],[-8.987526,38.953304],[-8.987866,38.952948],[-8.988141,38.952668],[-8.989031,38.951759],[-8.989441,38.951331],[-8.989833,38.950896],[-8.990201,38.950459],[-8.990519,38.950054],[-8.990839,38.949616],[-8.991006,38.94937],[-8.994782,38.943571],[-8.994812,38.943525],[-8.995202,38.942935],[-8.995616,38.942357],[-8.996109,38.941735],[-8.996408,38.941389],[-8.996517,38.941271],[-8.996719,38.941051],[-8.997084,38.940671],[-9.00136,38.936369],[-9.002009,38.935716],[-9.002505,38.935227],[-9.002875,38.934888],[-9.003253,38.934551],[-9.003694,38.934207],[-9.004009,38.933981],[-9.0045,38.933669],[-9.004554,38.933634],[-9.004591,38.93361],[-9.005045,38.933345],[-9.005966,38.932854],[-9.006628,38.93248],[-9.007307,38.932032],[-9.007615,38.931803],[-9.008004,38.931484],[-9.008346,38.931171],[-9.008645,38.930867],[-9.008963,38.930511],[-9.009261,38.930131],[-9.00932,38.930045],[-9.009538,38.929732],[-9.009807,38.929289],[-9.010001,38.928919],[-9.01012,38.928648],[-9.010173,38.928527],[-9.010318,38.92814],[-9.010429,38.927782],[-9.010986,38.925557],[-9.011177,38.924795],[-9.011247,38.924562],[-9.01129,38.92442],[-9.011432,38.923938],[-9.011538,38.923654],[-9.011675,38.923263],[-9.01189,38.92277],[-9.012039,38.922417],[-9.012192,38.922098],[-9.012356,38.921781],[-9.012855,38.920841],[-9.013523,38.919589],[-9.013857,38.918963],[-9.013878,38.918925],[-9.014185,38.918347],[-9.015154,38.916529],[-9.015158,38.916522],[-9.015497,38.915889],[-9.016576,38.913863],[-9.017554,38.912026],[-9.021782,38.904086],[-9.02182,38.904016],[-9.022589,38.902613],[-9.022868,38.902105],[-9.023318,38.901202],[-9.023546,38.900771],[-9.02379,38.900336],[-9.024176,38.899701],[-9.024486,38.899231],[-9.024772,38.898828],[-9.025018,38.8985],[-9.025381,38.898045],[-9.025847,38.897504],[-9.025942,38.897396],[-9.026202,38.897118],[-9.026347,38.896969],[-9.026589,38.89672],[-9.027287,38.896067],[-9.028047,38.895356],[-9.028875,38.8946],[-9.029744,38.893838],[-9.030351,38.893331],[-9.031298,38.892544],[-9.031959,38.892004],[-9.032869,38.891219],[-9.032896,38.891195],[-9.033196,38.890923],[-9.033304,38.890822],[-9.033582,38.89056],[-9.03423,38.889964],[-9.035366,38.888937],[-9.036843,38.887569],[-9.037122,38.887311],[-9.038304,38.886226],[-9.039134,38.885452],[-9.039682,38.884928],[-9.040193,38.8844],[-9.040773,38.883794],[-9.040797,38.883769],[-9.041149,38.883401],[-9.041765,38.88279],[-9.042519,38.882087],[-9.043102,38.881543],[-9.043505,38.881163],[-9.04373,38.880969],[-9.044074,38.880657],[-9.044411,38.880342],[-9.044998,38.879801],[-9.047575,38.877435],[-9.048543,38.876547],[-9.050384,38.874878],[-9.051761,38.873606],[-9.052285,38.873126],[-9.052588,38.872848],[-9.053036,38.872376],[-9.053137,38.872265],[-9.053668,38.871681],[-9.054008,38.871286],[-9.055936,38.86899],[-9.057039,38.867713],[-9.058734,38.865676],[-9.059767,38.864413],[-9.060346,38.863709],[-9.061139,38.862767],[-9.062068,38.861675],[-9.06271,38.860943],[-9.063012,38.860616],[-9.063263,38.860344],[-9.063641,38.859963],[-9.063907,38.859704],[-9.064337,38.859312],[-9.064763,38.858942],[-9.065329,38.858484],[-9.065412,38.858427],[-9.0657,38.858231],[-9.066269,38.857814],[-9.066762,38.857456],[-9.068407,38.856422],[-9.06896,38.856069],[-9.069721,38.855585],[-9.070473,38.855059],[-9.070983,38.854665],[-9.071667,38.854072],[-9.072141,38.853616],[-9.072554,38.853174],[-9.073027,38.852625],[-9.073704,38.851745],[-9.074371,38.850805],[-9.075137,38.849722],[-9.075426,38.849275],[-9.075791,38.848684],[-9.076241,38.847884],[-9.07666,38.847124],[-9.077255,38.846092],[-9.077834,38.845169],[-9.078454,38.844176],[-9.079095,38.8431],[-9.079884,38.841803],[-9.07994,38.841693],[-9.079995,38.841591],[-9.080141,38.841321],[-9.080266,38.84109],[-9.080499,38.84063],[-9.080733,38.840159],[-9.080879,38.83986],[-9.081066,38.839473],[-9.081181,38.839239],[-9.081382,38.838833],[-9.082032,38.83751],[-9.082559,38.836418],[-9.083068,38.835329],[-9.083545,38.834159],[-9.083632,38.833887],[-9.083998,38.832817],[-9.084441,38.831566],[-9.084953,38.830157],[-9.085449,38.828766],[-9.085835,38.827629],[-9.086297,38.826271],[-9.086644,38.825323],[-9.086747,38.82504],[-9.087168,38.823836],[-9.087521,38.822829],[-9.087554,38.822735],[-9.08763,38.822518],[-9.088043,38.821381],[-9.088443,38.820265],[-9.088834,38.81917],[-9.089266,38.817962],[-9.089843,38.816591],[-9.090352,38.815528],[-9.091453,38.813373],[-9.091852,38.812599],[-9.09249,38.81136],[-9.093179,38.810008],[-9.093906,38.808605],[-9.093998,38.808423],[-9.094377,38.807668],[-9.094544,38.807342],[-9.095127,38.806206],[-9.095374,38.805723],[-9.09548,38.805523],[-9.09562,38.805257],[-9.096326,38.803913],[-9.096983,38.802588],[-9.097333,38.801905],[-9.09764,38.801309],[-9.097933,38.800725],[-9.098322,38.799861],[-9.098539,38.799325],[-9.098694,38.798903],[-9.09882,38.79856],[-9.099174,38.797425],[-9.099189,38.797377],[-9.099372,38.796762],[-9.099396,38.796684],[-9.099586,38.796057],[-9.099631,38.795905],[-9.09979,38.795397],[-9.100066,38.794452],[-9.100181,38.794082],[-9.100466,38.7931],[-9.100689,38.79229],[-9.1008,38.791882],[-9.10089,38.791463],[-9.100922,38.791313],[-9.101005,38.790735],[-9.101083,38.790146],[-9.101114,38.789231],[-9.101106,38.788696],[-9.10108,38.788076],[-9.100985,38.787259],[-9.100838,38.786235],[-9.100769,38.785684],[-9.100755,38.785591],[-9.100008,38.780426],[-9.099877,38.779497],[-9.09972,38.778486],[-9.099578,38.777496],[-9.099435,38.776518],[-9.099204,38.774875],[-9.099164,38.774608],[-9.099126,38.774337],[-9.099094,38.774066],[-9.099069,38.773796],[-9.099058,38.77364],[-9.099047,38.773483],[-9.099039,38.773329],[-9.099032,38.773173],[-9.099028,38.772913],[-9.099029,38.772687],[-9.099035,38.772452],[-9.09905,38.772118],[-9.099066,38.771921],[-9.099093,38.771603],[-9.099123,38.771283],[-9.099152,38.770964],[-9.099181,38.770644],[-9.099198,38.770455],[-9.099212,38.77029],[-9.099245,38.769935],[-9.099277,38.769579],[-9.099312,38.76923],[-9.099334,38.768983],[-9.099337,38.768952],[-9.099438,38.767841],[-9.099539,38.76673],[-9.099542,38.766698],[-9.099564,38.766452],[-9.09964,38.765574],[-9.099688,38.765029],[-9.099733,38.764545],[-9.099806,38.763695],[-9.099855,38.763127],[-9.099861,38.763066],[-9.099886,38.762796],[-9.100056,38.76095],[-9.100064,38.760861],[-9.100201,38.759369],[-9.100293,38.75836],[-9.100559,38.755423],[-9.100633,38.754832],[-9.100678,38.754579],[-9.100695,38.754487],[-9.100773,38.754051],[-9.100957,38.753178],[-9.10122,38.751914],[-9.101333,38.751435],[-9.101584,38.750653],[-9.101837,38.749934],[-9.102355,38.748563],[-9.102413,38.748408],[-9.102701,38.747648],[-9.102904,38.747115],[-9.103396,38.745822],[-9.103509,38.745536],[-9.103527,38.745491],[-9.104149,38.744137],[-9.104344,38.743712],[-9.104551,38.743395],[-9.104837,38.743045],[-9.105012,38.742843],[-9.105022,38.74283],[-9.105082,38.742755],[-9.10555,38.742176],[-9.10561,38.742101],[-9.106811,38.740613],[-9.107321,38.740071],[-9.107605,38.739823],[-9.107847,38.73964],[-9.108085,38.739459],[-9.108441,38.739234],[-9.108696,38.739086],[-9.109173,38.738833],[-9.109657,38.738584],[-9.110329,38.738238],[-9.110428,38.738187],[-9.110492,38.738154],[-9.11105,38.737884],[-9.111477,38.737702],[-9.111911,38.737555],[-9.112239,38.737459],[-9.112567,38.737379],[-9.112894,38.737313],[-9.11338,38.737247],[-9.113612,38.737223],[-9.113846,38.737209],[-9.114202,38.737202],[-9.114558,38.737217],[-9.11505,38.737271],[-9.115448,38.737347],[-9.115872,38.737464],[-9.115953,38.737488],[-9.116324,38.737616],[-9.116552,38.737704],[-9.116618,38.737732],[-9.116746,38.737785],[-9.116966,38.737877],[-9.117408,38.738095],[-9.117558,38.738175],[-9.117951,38.738394],[-9.118297,38.738621],[-9.118561,38.738808],[-9.118781,38.738971],[-9.119364,38.739425],[-9.120036,38.739949],[-9.120344,38.74019],[-9.120758,38.74053],[-9.121087,38.740819],[-9.121192,38.740915],[-9.121343,38.741055],[-9.121519,38.741231],[-9.122001,38.741808],[-9.122425,38.742269],[-9.122704,38.742541],[-9.12295,38.742743],[-9.123135,38.742886],[-9.123256,38.742969],[-9.123424,38.743071],[-9.123599,38.743168],[-9.123783,38.743262],[-9.124258,38.743495],[-9.124592,38.743696],[-9.124657,38.743736],[-9.124746,38.74379],[-9.124857,38.743854],[-9.124962,38.743911],[-9.125114,38.743989],[-9.125207,38.744034],[-9.126628,38.744716],[-9.127858,38.745306],[-9.128053,38.7454],[-9.128222,38.745477],[-9.128533,38.745616],[-9.128827,38.745734],[-9.129153,38.745846],[-9.129603,38.745959],[-9.129758,38.745986],[-9.13003,38.746033],[-9.130272,38.746061],[-9.130416,38.746072],[-9.130543,38.746079],[-9.13065,38.746083],[-9.130761,38.746085],[-9.130871,38.746085],[-9.131005,38.746082],[-9.131453,38.746064],[-9.132646,38.745985],[-9.133764,38.745913],[-9.134032,38.745894],[-9.134178,38.745884],[-9.134299,38.745874],[-9.134419,38.745863],[-9.134598,38.745845],[-9.134784,38.745827],[-9.134952,38.745812],[-9.135516,38.74577],[-9.136195,38.745725],[-9.136325,38.745716],[-9.136457,38.745705],[-9.136604,38.745691],[-9.136871,38.745664],[-9.137038,38.745648],[-9.137197,38.745633],[-9.137323,38.745621],[-9.137517,38.745605],[-9.137577,38.7456],[-9.13791,38.745574],[-9.139204,38.745487],[-9.140117,38.745431],[-9.140831,38.745387],[-9.141151,38.745366],[-9.143165,38.745233],[-9.14352,38.74521],[-9.14356,38.745207],[-9.143917,38.745185],[-9.143975,38.745181],[-9.144324,38.745158],[-9.144871,38.745123],[-9.145045,38.745112],[-9.1458,38.745087],[-9.146236,38.745072],[-9.146493,38.745062],[-9.146774,38.745051],[-9.147063,38.745028],[-9.147348,38.744989],[-9.147415,38.74498],[-9.147634,38.744949],[-9.147909,38.744893],[-9.148223,38.744821],[-9.148526,38.744732],[-9.148625,38.744699],[-9.14873,38.744664],[-9.148926,38.744594],[-9.14933,38.744441],[-9.149664,38.744288],[-9.150125,38.744072],[-9.15015,38.744061],[-9.150376,38.743952],[-9.150811,38.743743],[-9.151147,38.743586],[-9.151459,38.743426],[-9.151548,38.743381],[-9.151969,38.743142],[-9.152353,38.74289],[-9.153218,38.742314],[-9.153793,38.741955],[-9.153973,38.741853],[-9.154438,38.741611],[-9.154722,38.741463],[-9.155029,38.741298],[-9.155472,38.741064],[-9.155721,38.740938],[-9.156077,38.740795],[-9.156228,38.740751],[-9.156392,38.740703],[-9.156787,38.74062],[-9.15709,38.740577],[-9.157325,38.740567],[-9.158145,38.740571],[-9.158314,38.74058],[-9.158775,38.740594],[-9.159081,38.740603],[-9.159432,38.740614],[-9.159701,38.740609],[-9.15982,38.740603],[-9.159959,38.740599],[-9.160145,38.740597],[-9.160245,38.7406],[-9.161059,38.740582],[-9.161156,38.740584],[-9.162803,38.740629],[-9.162901,38.740631],[-9.163923,38.740643],[-9.164383,38.740645],[-9.16455,38.740638],[-9.164694,38.74062],[-9.164993,38.740587],[-9.165365,38.740536],[-9.165622,38.740485],[-9.165663,38.740476],[-9.165902,38.740419],[-9.166293,38.740307],[-9.166633,38.740184],[-9.166984,38.740055],[-9.167417,38.739862],[-9.167484,38.739827],[-9.167723,38.739702],[-9.168168,38.739438],[-9.168368,38.739298],[-9.1685,38.739195],[-9.16863,38.739086],[-9.16868,38.739044],[-9.168725,38.739001],[-9.168818,38.738913],[-9.168942,38.738787],[-9.169054,38.738657],[-9.169115,38.738573],[-9.169181,38.738486],[-9.169237,38.738406],[-9.1693,38.738311],[-9.169356,38.738218],[-9.169407,38.738122],[-9.169455,38.738025],[-9.169499,38.737922],[-9.169536,38.737832],[-9.169568,38.737743],[-9.169595,38.737656],[-9.169621,38.737568],[-9.169644,38.73748],[-9.169659,38.737411],[-9.169673,38.737328],[-9.169687,38.737233],[-9.169697,38.737128],[-9.169706,38.737033],[-9.169707,38.736908],[-9.169704,38.7368],[-9.169698,38.736703],[-9.169685,38.736593],[-9.169668,38.736487],[-9.169652,38.7364],[-9.169632,38.736315],[-9.169609,38.736235],[-9.169586,38.73616],[-9.169551,38.736059],[-9.169526,38.735993],[-9.169493,38.735915],[-9.169461,38.735847],[-9.169423,38.735767],[-9.169376,38.735671],[-9.169307,38.735544],[-9.169238,38.735423],[-9.168803,38.734698],[-9.168697,38.734517],[-9.168656,38.734446],[-9.168599,38.734343],[-9.168556,38.734256],[-9.168513,38.734159],[-9.168466,38.734037],[-9.16843,38.733937],[-9.168402,38.733844],[-9.168374,38.733735],[-9.168353,38.733641],[-9.168337,38.733546],[-9.168325,38.733437],[-9.168316,38.733331],[-9.168312,38.733232],[-9.168312,38.733145],[-9.168313,38.73306],[-9.16832,38.732965],[-9.168333,38.732867],[-9.168346,38.732774],[-9.168365,38.732682],[-9.168387,38.732582],[-9.168414,38.732484],[-9.168443,38.732402],[-9.168471,38.73232],[-9.168498,38.73226],[-9.16862,38.731988],[-9.168925,38.731444],[-9.169192,38.731026],[-9.169379,38.730746],[-9.169686,38.730308],[-9.169857,38.730076],[-9.170162,38.729683],[-9.170257,38.729562],[-9.170373,38.729413],[-9.170562,38.729155],[-9.170743,38.728873],[-9.170889,38.728604],[-9.171104,38.72811],[-9.171126,38.728059],[-9.171254,38.727796],[-9.171418,38.727503],[-9.171553,38.72722],[-9.171626,38.727027],[-9.171686,38.72684],[-9.171741,38.726645],[-9.171824,38.726353],[-9.171863,38.726215],[-9.171993,38.725758],[-9.172086,38.725428],[-9.17216,38.725168],[-9.17218,38.725092],[-9.172235,38.724898],[-9.172311,38.72465],[-9.172379,38.724445],[-9.172451,38.724234],[-9.172499,38.724108],[-9.172558,38.723976],[-9.172629,38.723835],[-9.173094,38.722954],[-9.173322,38.722413],[-9.173412,38.722135],[-9.173484,38.721852],[-9.17354,38.721565],[-9.173599,38.721167],[-9.173622,38.721006],[-9.17363,38.720945],[-9.173636,38.720879],[-9.173637,38.720825],[-9.173636,38.720777],[-9.173627,38.720484],[-9.173627,38.720295],[-9.173627,38.720205],[-9.173623,38.719988],[-9.17362,38.719613],[-9.17362,38.719506],[-9.173627,38.719396],[-9.173635,38.719297],[-9.173644,38.719216],[-9.173657,38.719131],[-9.173667,38.719079],[-9.173717,38.718817],[-9.173786,38.718515],[-9.173954,38.71786],[-9.174031,38.71752],[-9.174087,38.717179],[-9.17411,38.716912],[-9.174113,38.7167],[-9.174106,38.716512],[-9.174101,38.716451],[-9.174095,38.716373],[-9.17409,38.716318],[-9.174074,38.71619],[-9.174052,38.716003],[-9.173633,38.712938],[-9.17341,38.711401],[-9.173377,38.711164],[-9.173327,38.710815],[-9.173248,38.710267],[-9.173198,38.710101],[-9.173152,38.709965],[-9.173098,38.709818],[-9.173065,38.709713],[-9.173035,38.709594],[-9.173018,38.709488],[-9.173004,38.709369],[-9.17298,38.709131],[-9.172967,38.708991],[-9.172961,38.708854],[-9.172959,38.708699],[-9.172972,38.708454],[-9.172991,38.708327],[-9.173015,38.708177],[-9.173087,38.707822],[-9.173175,38.707397],[-9.173224,38.707159]]]}},{"type":"Feature","properties":{"name":"Linha de Cascais: Cascais → Cais do Sodré","ref":"U CIS-CSO","colour":"#FDC500","from":"Cascais","to":"Cais do Sodré","operator":"Comboios de Portugal","network":"CP Lisboa","route":"train","service":"commuter","gtfs:route_id":"25-94_69260-94_69005","gtfs:shape_id":"shape-96","@id":"relation/8158317","length_km":25.31},"geometry":{"type":"MultiLineString","coordinates":[[[-9.418218,38.700864],[-9.417839,38.700926],[-9.41597,38.701234],[-9.415892,38.701247],[-9.415814,38.70126],[-9.415748,38.70127],[-9.415675,38.701278],[-9.415605,38.701285],[-9.415539,38.701291],[-9.415424,38.701298],[-9.415368,38.701301],[-9.415313,38.701306],[-9.415268,38.701311],[-9.41521,38.701318],[-9.414813,38.701378],[-9.414331,38.70145],[-9.413344,38.701583],[-9.412969,38.701627],[-9.411527,38.701816],[-9.410858,38.701916],[-9.410485,38.701997],[-9.410101,38.702096],[-9.40908,38.702389],[-9.408723,38.702499],[-9.408423,38.702607],[-9.408113,38.702739],[-9.407741,38.702932],[-9.407492,38.703079],[-9.407247,38.703224],[-9.407048,38.703342],[-9.406849,38.703444],[-9.406644,38.703536],[-9.406524,38.703584],[-9.406403,38.703629],[-9.406392,38.703633],[-9.406234,38.703685],[-9.406051,38.703738],[-9.405875,38.70378],[-9.405628,38.703829],[-9.405458,38.703853],[-9.405277,38.703874],[-9.405096,38.703889],[-9.404807,38.703898],[-9.404717,38.703897],[-9.404526,38.703892],[-9.404336,38.703879],[-9.403911,38.703825],[-9.403441,38.703754],[-9.402487,38.703606],[-9.402229,38.703566],[-9.401975,38.703532],[-9.401608,38.703492],[-9.401198,38.703452],[-9.400064,38.703364],[-9.399618,38.703334],[-9.399538,38.703329],[-9.397508,38.703176],[-9.39733,38.703162],[-9.396972,38.703135],[-9.39629,38.703078],[-9.395856,38.703048],[-9.395406,38.703015],[-9.395016,38.70302],[-9.394679,38.703038],[-9.394202,38.703081],[-9.393346,38.703196],[-9.392727,38.703271],[-9.392379,38.703294],[-9.392008,38.7033],[-9.391642,38.703277],[-9.391301,38.703236],[-9.390854,38.703147],[-9.390392,38.703016],[-9.389968,38.702857],[-9.388766,38.702389],[-9.387721,38.701972],[-9.38696,38.701667],[-9.386601,38.701528],[-9.386556,38.701511],[-9.386482,38.701482],[-9.38642,38.701455],[-9.386406,38.70145],[-9.386249,38.701391],[-9.385246,38.700981],[-9.384979,38.700885],[-9.384565,38.700706],[-9.384228,38.700535],[-9.38414,38.700482],[-9.383823,38.700265],[-9.383522,38.699991],[-9.38327,38.699732],[-9.38267,38.698991],[-9.382265,38.698503],[-9.382207,38.69844],[-9.381988,38.698203],[-9.381734,38.697981],[-9.381434,38.69776],[-9.381066,38.697529],[-9.380729,38.697372],[-9.380352,38.697221],[-9.3798,38.69706],[-9.377189,38.696528],[-9.375831,38.696271],[-9.375383,38.69619],[-9.375105,38.696129],[-9.375005,38.69611],[-9.374119,38.695944],[-9.373901,38.695897],[-9.373316,38.695775],[-9.372756,38.695658],[-9.372269,38.695566],[-9.371846,38.695485],[-9.371371,38.695389],[-9.370797,38.695272],[-9.370163,38.695145],[-9.369562,38.695025],[-9.369071,38.694924],[-9.368743,38.694845],[-9.368434,38.694753],[-9.368138,38.694646],[-9.367885,38.694546],[-9.367594,38.694381],[-9.367302,38.694205],[-9.366995,38.694007],[-9.366691,38.693758],[-9.366069,38.693205],[-9.365129,38.6924],[-9.36472,38.692054],[-9.364174,38.691586],[-9.363848,38.69135],[-9.363581,38.691189],[-9.363242,38.691012],[-9.362879,38.690858],[-9.362485,38.690732],[-9.362074,38.690627],[-9.361645,38.690557],[-9.361167,38.690523],[-9.36067,38.690511],[-9.360119,38.690515],[-9.359658,38.690521],[-9.359107,38.690503],[-9.358692,38.690463],[-9.35836,38.690408],[-9.357993,38.690321],[-9.357683,38.690228],[-9.357432,38.69014],[-9.356752,38.689894],[-9.355711,38.689514],[-9.355633,38.689485],[-9.355482,38.689429],[-9.354999,38.689242],[-9.354775,38.689171],[-9.35298,38.688493],[-9.352132,38.68818],[-9.35195,38.688112],[-9.351525,38.687961],[-9.351102,38.687816],[-9.35078,38.687728],[-9.350432,38.687643],[-9.349964,38.687554],[-9.349502,38.687495],[-9.349063,38.687462],[-9.348657,38.687451],[-9.34822,38.68746],[-9.346851,38.687507],[-9.345238,38.687564],[-9.34342,38.687632],[-9.340874,38.687723],[-9.34026,38.687745],[-9.338551,38.687806],[-9.338055,38.68782],[-9.336287,38.687882],[-9.335871,38.687897],[-9.335014,38.687928],[-9.331636,38.688043],[-9.331,38.688069],[-9.330109,38.6881],[-9.328295,38.688168],[-9.322095,38.688434],[-9.321004,38.688488],[-9.320584,38.688518],[-9.320327,38.688536],[-9.320114,38.688549],[-9.319695,38.688572],[-9.319633,38.688573],[-9.319582,38.688574],[-9.319282,38.688566],[-9.318811,38.688536],[-9.318524,38.688503],[-9.318241,38.688453],[-9.31805,38.68842],[-9.317657,38.68833],[-9.317564,38.688307],[-9.316928,38.688133],[-9.316159,38.687937],[-9.316013,38.6879],[-9.315856,38.687859],[-9.314477,38.687524],[-9.313487,38.687282],[-9.313433,38.687269],[-9.312756,38.687098],[-9.312219,38.686974],[-9.311898,38.686915],[-9.311784,38.686897],[-9.311717,38.686887],[-9.311341,38.68685],[-9.310924,38.686831],[-9.310528,38.686836],[-9.309734,38.686875],[-9.308818,38.686926],[-9.307621,38.686991],[-9.307036,38.687041],[-9.306519,38.687136],[-9.306193,38.687224],[-9.30579,38.687354],[-9.305431,38.687513],[-9.30504,38.687721],[-9.304688,38.687956],[-9.304371,38.68821],[-9.304084,38.688498],[-9.30386,38.688776],[-9.303592,38.689224],[-9.303353,38.689735],[-9.303087,38.690347],[-9.302814,38.690862],[-9.302635,38.69114],[-9.302424,38.69143],[-9.302171,38.691728],[-9.301953,38.691961],[-9.301734,38.692176],[-9.301137,38.69264],[-9.300656,38.692946],[-9.299623,38.693501],[-9.298522,38.694083],[-9.2976,38.694558],[-9.297076,38.694843],[-9.29668,38.69509],[-9.296356,38.695323],[-9.295346,38.696065],[-9.29491,38.696378],[-9.294477,38.696627],[-9.294117,38.696796],[-9.293626,38.696969],[-9.293149,38.697065],[-9.292965,38.697098],[-9.29279,38.697122],[-9.292582,38.697143],[-9.292481,38.697149],[-9.292378,38.697156],[-9.292066,38.697163],[-9.291699,38.697161],[-9.290141,38.697115],[-9.289873,38.697107],[-9.289212,38.697087],[-9.288994,38.69708],[-9.288557,38.697089],[-9.288063,38.697121],[-9.287592,38.697191],[-9.286557,38.697455],[-9.284809,38.697962],[-9.283929,38.698212],[-9.28325,38.698402],[-9.281908,38.698785],[-9.281284,38.698954],[-9.280814,38.699049],[-9.280359,38.699106],[-9.279926,38.699124],[-9.279397,38.699117],[-9.277952,38.69902],[-9.277872,38.699015],[-9.277179,38.698967],[-9.277109,38.698962],[-9.27705,38.698958],[-9.27631,38.698892],[-9.276144,38.698876],[-9.275879,38.698858],[-9.275825,38.698855],[-9.274876,38.698798],[-9.274186,38.698757],[-9.27297,38.698687],[-9.272944,38.698687],[-9.272563,38.698679],[-9.272142,38.6987],[-9.271756,38.698765],[-9.271053,38.698923],[-9.270283,38.699102],[-9.269833,38.699174],[-9.269393,38.699204],[-9.268916,38.699188],[-9.268885,38.699185],[-9.268208,38.699123],[-9.267611,38.699041],[-9.267159,38.698997],[-9.266752,38.698987],[-9.266348,38.699003],[-9.265917,38.69906],[-9.26587,38.699072],[-9.265456,38.699178],[-9.264777,38.699398],[-9.264256,38.699596],[-9.263848,38.699728],[-9.263387,38.699848],[-9.263139,38.699885],[-9.262984,38.699909],[-9.262624,38.699941],[-9.262229,38.699938],[-9.261772,38.699901],[-9.26092,38.699785],[-9.260326,38.699723],[-9.25982,38.69972],[-9.259269,38.699775],[-9.258442,38.699926],[-9.257366,38.700134],[-9.256964,38.700201],[-9.256863,38.700218],[-9.256383,38.700254],[-9.255845,38.700248],[-9.255375,38.700194],[-9.254722,38.700077],[-9.25432,38.700008],[-9.254037,38.699966],[-9.253903,38.699946],[-9.253793,38.69993],[-9.25368,38.699918],[-9.252794,38.699852],[-9.252664,38.699844],[-9.252205,38.699819],[-9.25132,38.699769],[-9.251075,38.699755],[-9.250488,38.69972],[-9.248863,38.699619],[-9.244733,38.699363],[-9.243608,38.699287],[-9.239953,38.699039],[-9.239701,38.699013],[-9.239548,38.699001],[-9.2394,38.698991],[-9.239213,38.698979],[-9.239026,38.698965],[-9.238731,38.698943],[-9.238453,38.698923],[-9.238148,38.698901],[-9.237806,38.698876],[-9.23749,38.698852],[-9.237196,38.698829],[-9.236911,38.698807],[-9.236641,38.698786],[-9.236342,38.698762],[-9.236033,38.698739],[-9.235772,38.698719],[-9.235556,38.698703],[-9.235397,38.698692],[-9.235295,38.698685],[-9.235182,38.698678],[-9.235078,38.698673],[-9.234967,38.698668],[-9.234847,38.698663],[-9.234736,38.69866],[-9.23462,38.698658],[-9.234501,38.698656],[-9.234373,38.698656],[-9.23426,38.698657],[-9.233851,38.69866],[-9.233745,38.69866],[-9.23359,38.698662],[-9.233407,38.698664],[-9.233267,38.698666],[-9.233137,38.698668],[-9.233002,38.69867],[-9.232833,38.698671],[-9.232657,38.698673],[-9.232505,38.698675],[-9.23236,38.698676],[-9.232176,38.698678],[-9.232013,38.698678],[-9.23199,38.698678],[-9.231858,38.698679],[-9.231644,38.69868],[-9.23152,38.698679],[-9.231405,38.698679],[-9.231317,38.698677],[-9.231241,38.698675],[-9.231165,38.698672],[-9.23111,38.698669],[-9.231035,38.698665],[-9.230977,38.698661],[-9.230918,38.698657],[-9.23085,38.698652],[-9.230759,38.698645],[-9.230606,38.698631],[-9.230541,38.698625],[-9.230469,38.698618],[-9.2304,38.698611],[-9.230313,38.698601],[-9.230241,38.698592],[-9.23017,38.698582],[-9.230095,38.698572],[-9.229976,38.698553],[-9.229865,38.698534],[-9.229748,38.698515],[-9.229621,38.698493],[-9.229484,38.698467],[-9.229428,38.698456],[-9.228933,38.698361],[-9.228779,38.69833],[-9.228693,38.698312],[-9.228601,38.698292],[-9.228512,38.698272],[-9.228451,38.698257],[-9.228389,38.698243],[-9.228324,38.698226],[-9.228273,38.698212],[-9.228222,38.698198],[-9.22815,38.698178],[-9.22809,38.69816],[-9.22803,38.698141],[-9.227974,38.698123],[-9.227898,38.698097],[-9.22778,38.698056],[-9.227655,38.698011],[-9.227567,38.697977],[-9.22749,38.697948],[-9.227396,38.697909],[-9.227314,38.697875],[-9.227222,38.697835],[-9.227122,38.697791],[-9.227025,38.697748],[-9.226946,38.697713],[-9.226874,38.697681],[-9.226798,38.697646],[-9.226721,38.69761],[-9.226693,38.697596],[-9.226641,38.697571],[-9.226551,38.697527],[-9.226404,38.697452],[-9.2258,38.69712],[-9.224922,38.696626],[-9.224345,38.696302],[-9.22162,38.694774],[-9.221366,38.694638],[-9.221236,38.69457],[-9.221138,38.694524],[-9.220998,38.69446],[-9.220721,38.694346],[-9.220535,38.694275],[-9.22041,38.694233],[-9.220277,38.694189],[-9.219723,38.694019],[-9.218849,38.693755],[-9.21863,38.693697],[-9.218526,38.693673],[-9.218424,38.693652],[-9.218159,38.693601],[-9.217889,38.693573],[-9.217735,38.693563],[-9.217581,38.693558],[-9.217395,38.693557],[-9.217176,38.693564],[-9.216742,38.693594],[-9.215326,38.693719],[-9.214126,38.693824],[-9.212741,38.693948],[-9.211522,38.694063],[-9.210428,38.694164],[-9.209704,38.694235],[-9.209236,38.694283],[-9.209074,38.694301],[-9.208912,38.694323],[-9.208513,38.694387],[-9.207909,38.694496],[-9.207112,38.69464],[-9.205449,38.694942],[-9.203944,38.695215],[-9.202882,38.695408],[-9.201804,38.695602],[-9.200367,38.695863],[-9.199743,38.695972],[-9.199325,38.696031],[-9.199163,38.69605],[-9.198998,38.696068],[-9.198433,38.696118],[-9.196747,38.69627],[-9.19549,38.696382],[-9.194982,38.696427],[-9.194557,38.696464],[-9.193615,38.69655],[-9.193006,38.696616],[-9.192612,38.696671],[-9.192226,38.696732],[-9.190681,38.696981],[-9.188905,38.697268],[-9.188336,38.69736],[-9.186142,38.697716],[-9.18577,38.697782],[-9.185083,38.697915],[-9.184544,38.698033],[-9.184005,38.698161],[-9.183247,38.698363],[-9.182479,38.698592],[-9.181847,38.698798],[-9.181343,38.698975],[-9.180996,38.699104],[-9.180756,38.699196],[-9.180172,38.699431],[-9.179683,38.699641],[-9.17921,38.699855],[-9.17897,38.699969],[-9.17826,38.700322],[-9.177671,38.700614],[-9.177096,38.700902],[-9.176642,38.701125],[-9.176091,38.701401],[-9.175721,38.70158],[-9.175274,38.701796],[-9.175024,38.701913],[-9.174036,38.70237],[-9.173677,38.70254],[-9.173275,38.702723],[-9.172984,38.702843],[-9.172676,38.702961],[-9.172344,38.703068],[-9.17215,38.703125],[-9.171916,38.703186],[-9.171566,38.703265],[-9.17121,38.703329],[-9.170786,38.703377],[-9.170352,38.703415],[-9.169947,38.703429],[-9.168214,38.703435],[-9.166337,38.703426],[-9.164339,38.703422],[-9.163933,38.70343],[-9.163706,38.703443],[-9.163466,38.703461],[-9.163022,38.703526],[-9.162658,38.703603],[-9.161657,38.703814],[-9.160973,38.703967],[-9.160687,38.704036],[-9.160478,38.704098],[-9.160285,38.704159],[-9.159863,38.704301],[-9.159538,38.704425],[-9.15878,38.704779],[-9.157911,38.705192],[-9.156907,38.705663],[-9.156895,38.705668],[-9.156634,38.705776],[-9.156437,38.705853],[-9.15605,38.705985],[-9.15565,38.706096],[-9.155346,38.706171],[-9.155037,38.706234],[-9.154845,38.706265],[-9.154657,38.706291],[-9.154478,38.706314],[-9.154144,38.706344],[-9.153877,38.706358],[-9.153606,38.706358],[-9.153409,38.706361],[-9.152778,38.706353],[-9.151959,38.706338],[-9.151585,38.706329],[-9.15112,38.706325],[-9.15093,38.70632],[-9.15059,38.706315],[-9.149947,38.706303],[-9.149805,38.706294],[-9.14971,38.706287],[-9.149625,38.706279],[-9.149525,38.706267],[-9.149382,38.706249],[-9.149077,38.70621],[-9.148593,38.70615],[-9.148116,38.706091],[-9.147959,38.706075],[-9.147787,38.70606],[-9.147528,38.706041],[-9.147412,38.706033],[-9.147304,38.706029],[-9.146821,38.706012],[-9.145406,38.705987],[-9.145326,38.705985],[-9.145323,38.705985]]]}},{"type":"Feature","properties":{"name":"Linha do Sado: Barreiro → Praias do Sado-A","ref":"U BAO-PSD","colour":"#2DAAE1","from":"Barreiro","to":"Praias do Sado A","operator":"Comboios de Portugal","network":"CP Lisboa","route":"train","service":"commuter","gtfs:route_id":"25-94_95000-94_91058","gtfs:shape_id":"shape-84","@id":"relation/10483783","length_km":33.85},"geometry":{"type":"MultiLineString","coordinates":[[[-9.07948,38.652441],[-9.079464,38.652481],[-9.079463,38.652482],[-9.079434,38.65256],[-9.078971,38.653759],[-9.078857,38.654055],[-9.078663,38.65456],[-9.078516,38.654934],[-9.078345,38.655372],[-9.078192,38.655647],[-9.078018,38.655891],[-9.077851,38.656064],[-9.077582,38.656343],[-9.077362,38.656517],[-9.077118,38.656697],[-9.076924,38.656818],[-9.076483,38.657072],[-9.076076,38.657304],[-9.075778,38.657466],[-9.075639,38.657538],[-9.075517,38.657598],[-9.075365,38.657666],[-9.075217,38.657728],[-9.075063,38.657786],[-9.07473,38.657896],[-9.074334,38.658016],[-9.073956,38.658139],[-9.073842,38.658173],[-9.073562,38.658257],[-9.073259,38.658381],[-9.072999,38.65851],[-9.072679,38.658722],[-9.072486,38.658879],[-9.072472,38.658893],[-9.072269,38.65908],[-9.071598,38.659784],[-9.071065,38.660344],[-9.07075,38.660638],[-9.070525,38.660808],[-9.070346,38.660926],[-9.070273,38.660974],[-9.069981,38.661131],[-9.069659,38.661273],[-9.069323,38.661409],[-9.068982,38.66155],[-9.068301,38.661797],[-9.06788,38.661926],[-9.067494,38.66203],[-9.066953,38.662153],[-9.06657,38.662224],[-9.066171,38.662285],[-9.065573,38.662354],[-9.065102,38.662394],[-9.064398,38.662431],[-9.064333,38.662432],[-9.064308,38.662432],[-9.063552,38.662442],[-9.062934,38.662423],[-9.062644,38.662411],[-9.062404,38.662395],[-9.06221,38.66238],[-9.062152,38.662375],[-9.061934,38.662355],[-9.06162,38.66232],[-9.061362,38.662289],[-9.061179,38.662264],[-9.059834,38.662072],[-9.059672,38.662047],[-9.059345,38.661998],[-9.058308,38.661844],[-9.057031,38.661651],[-9.055737,38.661457],[-9.0551,38.661362],[-9.054745,38.661316],[-9.054256,38.661242],[-9.052344,38.660952],[-9.052084,38.660912],[-9.052019,38.660902],[-9.051429,38.660813],[-9.050514,38.660674],[-9.048669,38.660391],[-9.048631,38.660385],[-9.048522,38.660369],[-9.046705,38.660102],[-9.045959,38.659981],[-9.045387,38.65987],[-9.04525,38.65984],[-9.045112,38.659808],[-9.045004,38.659783],[-9.044898,38.659756],[-9.044784,38.659726],[-9.044671,38.659696],[-9.044512,38.659651],[-9.04433,38.659597],[-9.0442,38.659557],[-9.044047,38.659508],[-9.043877,38.659449],[-9.043816,38.659428],[-9.043703,38.659388],[-9.043512,38.659318],[-9.043346,38.659253],[-9.043314,38.659241],[-9.043264,38.659221],[-9.04264,38.658946],[-9.042201,38.658726],[-9.041862,38.658567],[-9.041132,38.658202],[-9.040854,38.658065],[-9.040657,38.657966],[-9.040369,38.657821],[-9.039834,38.657553],[-9.03915,38.65721],[-9.038074,38.656668],[-9.037276,38.656264],[-9.036153,38.655707],[-9.035849,38.655553],[-9.034526,38.654877],[-9.033246,38.654229],[-9.032468,38.653848],[-9.031848,38.653538],[-9.030987,38.653124],[-9.030912,38.653091],[-9.030585,38.652949],[-9.030163,38.652786],[-9.029354,38.652506],[-9.029047,38.652415],[-9.028685,38.65231],[-9.02796,38.652142],[-9.026532,38.651822],[-9.025001,38.651483],[-9.02439,38.651348],[-9.022421,38.650902],[-9.020553,38.650494],[-9.020069,38.650384],[-9.016452,38.649565],[-9.01571,38.649393],[-9.014731,38.649166],[-9.012501,38.64864],[-9.011131,38.648315],[-9.009032,38.647825],[-9.007672,38.647508],[-9.00682,38.64731],[-9.005778,38.647064],[-9.005167,38.646923],[-9.005035,38.646893],[-9.004691,38.646814],[-9.003531,38.646541],[-9.002688,38.646342],[-9.00172,38.646117],[-9.000812,38.645905],[-8.999618,38.645625],[-8.998525,38.645364],[-8.998084,38.64526],[-8.997841,38.645204],[-8.997751,38.645182],[-8.997318,38.645087],[-8.995762,38.644721],[-8.994324,38.644384],[-8.993653,38.644228],[-8.993041,38.644084],[-8.992593,38.643979],[-8.991941,38.643826],[-8.991595,38.643745],[-8.99045,38.643477],[-8.989358,38.64322],[-8.988432,38.643004],[-8.987017,38.642673],[-8.986267,38.642497],[-8.986133,38.642465],[-8.984766,38.642145],[-8.983601,38.641872],[-8.982361,38.641582],[-8.982109,38.641523],[-8.981731,38.641438],[-8.981362,38.641358],[-8.980956,38.641274],[-8.980674,38.641218],[-8.980325,38.641153],[-8.979944,38.641082],[-8.979579,38.64102],[-8.979327,38.640978],[-8.979124,38.640946],[-8.978941,38.640917],[-8.978759,38.64089],[-8.978512,38.640853],[-8.978222,38.640813],[-8.977927,38.640774],[-8.977587,38.640731],[-8.977299,38.640697],[-8.976942,38.640657],[-8.976613,38.640624],[-8.975863,38.64055],[-8.975812,38.640545],[-8.974871,38.640483],[-8.973953,38.640435],[-8.973448,38.640417],[-8.970553,38.640317],[-8.968992,38.640262],[-8.967448,38.640213],[-8.965813,38.640153],[-8.964513,38.640061],[-8.964448,38.640053],[-8.964425,38.64005],[-8.964339,38.640038],[-8.964146,38.640012],[-8.963703,38.639954],[-8.96289,38.639799],[-8.961473,38.639465],[-8.960546,38.639238],[-8.960042,38.639115],[-8.959292,38.63893],[-8.957785,38.638556],[-8.956252,38.638179],[-8.954864,38.637834],[-8.953398,38.637469],[-8.953354,38.637458],[-8.952473,38.637243],[-8.951698,38.637051],[-8.950205,38.636681],[-8.947801,38.636086],[-8.946129,38.635672],[-8.945798,38.63559],[-8.944096,38.63517],[-8.942487,38.634769],[-8.942179,38.634693],[-8.940008,38.634156],[-8.938387,38.63375],[-8.936707,38.633329],[-8.935939,38.633137],[-8.934093,38.632686],[-8.931836,38.632131],[-8.931488,38.632049],[-8.929656,38.631589],[-8.927578,38.631072],[-8.926469,38.630802],[-8.926392,38.630784],[-8.926302,38.630762],[-8.925446,38.630561],[-8.924702,38.630391],[-8.924202,38.630309],[-8.923891,38.630259],[-8.923375,38.630205],[-8.922988,38.630165],[-8.922448,38.630141],[-8.921891,38.630126],[-8.9217,38.630121],[-8.920582,38.630086],[-8.920333,38.630077],[-8.919814,38.630061],[-8.918982,38.630046],[-8.918449,38.63006],[-8.917761,38.630077],[-8.917106,38.630094],[-8.91603,38.630081],[-8.915955,38.630083],[-8.915352,38.630075],[-8.914946,38.630054],[-8.914427,38.630015],[-8.914284,38.630005],[-8.914176,38.629998],[-8.914072,38.629992],[-8.913986,38.629989],[-8.913907,38.629987],[-8.912824,38.629997],[-8.910813,38.630019],[-8.91013,38.630026],[-8.909737,38.630032],[-8.909518,38.630031],[-8.909446,38.630031],[-8.909141,38.630019],[-8.908894,38.629999],[-8.908677,38.629975],[-8.90838,38.629931],[-8.908141,38.629887],[-8.90797,38.62985],[-8.907783,38.629803],[-8.907566,38.629741],[-8.907396,38.629688],[-8.90726,38.629645],[-8.907233,38.629635],[-8.90709,38.629584],[-8.906882,38.6295],[-8.906699,38.62942],[-8.906505,38.629329],[-8.906316,38.62923],[-8.906167,38.629147],[-8.905946,38.629015],[-8.905789,38.628917],[-8.905664,38.628838],[-8.905532,38.628745],[-8.905411,38.628657],[-8.905273,38.628552],[-8.905142,38.628445],[-8.904996,38.628322],[-8.90484,38.628181],[-8.904717,38.628059],[-8.904552,38.627893],[-8.903783,38.626963],[-8.903709,38.626861],[-8.903635,38.626758],[-8.903561,38.626655],[-8.903329,38.626334],[-8.902543,38.625244],[-8.901557,38.62391],[-8.89997,38.621764],[-8.899329,38.620886],[-8.898324,38.619509],[-8.897041,38.617777],[-8.89563,38.615815],[-8.894318,38.614023],[-8.89426,38.613944],[-8.89423,38.613903],[-8.891666,38.610412],[-8.889333,38.607257],[-8.888596,38.606247],[-8.8879,38.60531],[-8.887433,38.604649],[-8.885749,38.602386],[-8.884037,38.600045],[-8.882516,38.597956],[-8.881109,38.596007],[-8.879458,38.593818],[-8.878255,38.59202],[-8.877382,38.590474],[-8.876735,38.58903],[-8.876226,38.587598],[-8.875719,38.58557],[-8.875187,38.583228],[-8.874721,38.580895],[-8.874629,38.580459],[-8.874553,38.580098],[-8.874443,38.579575],[-8.874272,38.578762],[-8.874183,38.578345],[-8.87392,38.577132],[-8.873666,38.575962],[-8.87338,38.574597],[-8.873352,38.574457],[-8.872965,38.572686],[-8.872729,38.571581],[-8.872492,38.570465],[-8.872305,38.569473],[-8.872165,38.568756],[-8.871916,38.56774],[-8.871257,38.564678],[-8.871032,38.563633],[-8.870916,38.562924],[-8.870873,38.561951],[-8.870913,38.561106],[-8.871051,38.56022],[-8.871256,38.559372],[-8.871578,38.558502],[-8.872038,38.557525],[-8.872517,38.556722],[-8.873053,38.556006],[-8.873663,38.5553],[-8.874474,38.554512],[-8.877355,38.55186],[-8.878039,38.551172],[-8.878627,38.550514],[-8.879325,38.549662],[-8.880101,38.548561],[-8.880627,38.547693],[-8.88097,38.547048],[-8.881372,38.546219],[-8.881735,38.54532],[-8.881963,38.544638],[-8.882216,38.543787],[-8.882374,38.543092],[-8.882517,38.542314],[-8.882539,38.542152],[-8.882722,38.540442],[-8.882903,38.538196],[-8.882941,38.537737],[-8.883051,38.536384],[-8.883067,38.536223],[-8.883098,38.53585],[-8.883129,38.535475],[-8.883129,38.534999],[-8.883131,38.534826],[-8.883147,38.534602],[-8.883201,38.533961],[-8.883225,38.533732],[-8.883252,38.533584],[-8.883302,38.53336],[-8.883436,38.533039],[-8.883505,38.532911],[-8.883613,38.532708],[-8.883795,38.532382],[-8.884753,38.530572],[-8.884794,38.530494],[-8.884928,38.530247],[-8.884938,38.530229],[-8.884962,38.530184],[-8.885071,38.530016],[-8.885186,38.529866],[-8.885408,38.529606],[-8.88558,38.529371],[-8.885861,38.528957],[-8.885909,38.528868],[-8.886008,38.528672],[-8.886037,38.528608],[-8.886163,38.528328],[-8.886238,38.528094],[-8.886282,38.527854],[-8.886373,38.527067],[-8.886387,38.526956],[-8.886451,38.526437],[-8.886474,38.526133],[-8.886499,38.52579],[-8.886507,38.525566],[-8.88651,38.525392],[-8.886509,38.525207],[-8.886497,38.525072],[-8.886485,38.524937],[-8.886456,38.524699],[-8.886416,38.524474],[-8.886364,38.524238],[-8.886316,38.52407],[-8.886254,38.523904],[-8.88622,38.523787],[-8.886171,38.523628],[-8.886027,38.523362],[-8.885995,38.523316],[-8.885856,38.523149],[-8.8857,38.522984],[-8.885447,38.522769],[-8.885124,38.522496],[-8.884783,38.522282],[-8.884592,38.522161],[-8.8845,38.522112],[-8.884076,38.521882],[-8.883453,38.521623],[-8.882772,38.521366],[-8.882595,38.5213],[-8.878328,38.519804],[-8.877018,38.519321],[-8.876231,38.519031],[-8.875122,38.51857],[-8.874434,38.518293],[-8.874052,38.518139],[-8.873358,38.517872],[-8.869365,38.516495],[-8.868361,38.516061],[-8.867382,38.51561],[-8.86707,38.515486],[-8.866047,38.515077],[-8.864701,38.514631],[-8.862561,38.513936],[-8.861348,38.51354],[-8.86055,38.513291],[-8.860039,38.513154],[-8.859141,38.512956],[-8.858739,38.512873],[-8.857207,38.512563],[-8.85632,38.512431],[-8.855468,38.512365],[-8.852392,38.512126],[-8.849042,38.511886],[-8.84846,38.511844],[-8.847812,38.511841],[-8.847242,38.511891],[-8.846664,38.511984],[-8.84605,38.512148],[-8.845262,38.512431],[-8.844984,38.51252],[-8.84466,38.512651],[-8.84419,38.512842],[-8.843819,38.512997],[-8.843659,38.513066],[-8.842948,38.513374],[-8.842664,38.513515],[-8.842426,38.513646],[-8.842266,38.513744],[-8.842101,38.513859],[-8.841989,38.513937],[-8.841821,38.514068],[-8.841636,38.514228],[-8.841513,38.514346],[-8.841066,38.514812],[-8.840595,38.515315],[-8.840125,38.515816],[-8.840005,38.515945],[-8.83975,38.516214],[-8.839633,38.516337],[-8.839511,38.516466],[-8.839133,38.516863],[-8.838901,38.517097],[-8.838728,38.517264],[-8.83855,38.517429],[-8.838347,38.517613],[-8.838131,38.517792],[-8.838029,38.517878],[-8.837936,38.517952],[-8.837686,38.518133],[-8.837616,38.518183]]]}}]}