{"type":"FeatureCollection","features":[{"type":"Feature","properties":{"@id":"relation/7817932","colour":"#FFCC01","from":"Pragal","name":"Linha 2: Pragal → Corroios","network":"Metro Transportes do Sul","operator":"Metro Transportes do Sul","public_transport:version":"2","ref":"2","route":"light_rail","to":"Corroios","type":"route","wikidata":"Q48868981","wikipedia":"pt:Linha 2 (MTS)"},"geometry":{"type":"MultiLineString","coordinates":[[[-9.179967,38.666216],[-9.1796433,38.6663613],[-9.1794046,38.6664554],[-9.1792223,38.6665327],[-9.1787076,38.6667528],[-9.1779911,38.6670591],[-9.1775132,38.667267],[-9.1771964,38.667401],[-9.1771497,38.6674208],[-9.1768916,38.6675523],[-9.1767617,38.6676364],[-9.1765602,38.6678087],[-9.1764233,38.6679489],[-9.1762979,38.6680593],[-9.1762301,38.6681004],[-9.1761662,38.6681309],[-9.1761115,38.6681454],[-9.1760457,38.6681469],[-9.1759729,38.6681394],[-9.1758716,38.6681208],[-9.1757488,38.668092],[-9.1756519,38.6680709],[-9.1755352,38.6680455],[-9.1754436,38.6680308],[-9.1753403,38.6680307],[-9.1752946,38.6680323],[-9.1752092,38.6680412],[-9.175161,38.6680476],[-9.1751497,38.6680495],[-9.1750901,38.6680597],[-9.174389,38.6681965],[-9.1704766,38.6688855],[-9.1704292,38.6688937],[-9.1701486,38.6689431],[-9.1698159,38.6690013],[-9.1697223,38.669022],[-9.1696482,38.6690437],[-9.1695858,38.6690675],[-9.1695194,38.6691002],[-9.1694587,38.6691274],[-9.1692459,38.6692606],[-9.1690966,38.6693273],[-9.1689463,38.6693892],[-9.1688453,38.669426],[-9.1687905,38.6694414],[-9.168736,38.6694514],[-9.1686769,38.6694576],[-9.168605,38.6694582],[-9.1684698,38.6694537],[-9.168213,38.6694463],[-9.1680799,38.6694441],[-9.1679245,38.6694478],[-9.1677293,38.6694581],[-9.167556,38.669467],[-9.1674541,38.6694732],[-9.1671206,38.6694908],[-9.1668425,38.6695054],[-9.1667595,38.6695093],[-9.1665881,38.6695186],[-9.1665027,38.6695182],[-9.1664277,38.6695122],[-9.1663549,38.6695016],[-9.166281,38.6694828],[-9.1662178,38.6694591],[-9.1661524,38.6694298],[-9.1660919,38.6693969],[-9.1660473,38.6693665],[-9.1659814,38.6693143],[-9.1659419,38.6692759],[-9.1658979,38.6692132],[-9.1658541,38.6691088],[-9.1658329,38.6690266],[-9.1658277,38.6689199],[-9.1658195,38.6687446],[-9.1658187,38.668584],[-9.1658484,38.6684173],[-9.1658571,38.6683413],[-9.1658603,38.6682858],[-9.1658549,38.6682403],[-9.165846,38.6682078],[-9.1658317,38.6681645],[-9.1657938,38.6680949],[-9.1657624,38.6680549],[-9.1656877,38.6679771],[-9.1656099,38.6679226],[-9.165516,38.667887],[-9.1651274,38.6677752],[-9.164815,38.6676853],[-9.1644685,38.6675855],[-9.1640462,38.667464],[-9.1638103,38.6673976],[-9.1636686,38.6673609],[-9.1636146,38.6673488],[-9.1635524,38.6673336],[-9.163422,38.6673065],[-9.1632594,38.6672831],[-9.162939,38.6672474],[-9.1627253,38.6672265],[-9.1625549,38.6672016],[-9.1623911,38.6671747],[-9.16231,38.6671614],[-9.1620873,38.6671138],[-9.1618164,38.6670412],[-9.1615769,38.6669623],[-9.1611886,38.6668243],[-9.1608497,38.6667026],[-9.1606633,38.6666357],[-9.1605811,38.6666037],[-9.1605113,38.6665744],[-9.1604631,38.666545],[-9.1604094,38.6665094],[-9.1603692,38.6664696],[-9.160345,38.6664361],[-9.1603196,38.6663989],[-9.1602958,38.666347],[-9.1602792,38.6662776],[-9.1602726,38.6662058],[-9.1602383,38.6657545],[-9.160204,38.6653032],[-9.1601841,38.6650413],[-9.1601783,38.6649781],[-9.1601676,38.6649153],[-9.1601569,38.6648441],[-9.1601435,38.6647708],[-9.1601274,38.6647037],[-9.1601057,38.6646043],[-9.1600871,38.6645341],[-9.1600603,38.664442],[-9.1600285,38.6643586],[-9.1599829,38.6642539],[-9.1599396,38.6641508],[-9.1598967,38.664065],[-9.1598515,38.6639774],[-9.1597733,38.6638514],[-9.1597358,38.6637927],[-9.1595925,38.6635891],[-9.1595592,38.6635418],[-9.1587867,38.6624946],[-9.1577622,38.6610955],[-9.1577143,38.66103],[-9.1576416,38.6609465],[-9.1575934,38.6608787],[-9.1575595,38.6608309],[-9.1575336,38.6607944],[-9.1574954,38.6607406],[-9.1573331,38.6605208],[-9.1571472,38.6602707],[-9.1568467,38.6598631],[-9.1558895,38.6585647],[-9.1554396,38.6579541],[-9.1551356,38.6575413],[-9.1549836,38.6573346],[-9.1548342,38.657128],[-9.1547848,38.6570511],[-9.1547205,38.6569422],[-9.1546722,38.6568459],[-9.1546212,38.6567244],[-9.1545863,38.656628],[-9.1545542,38.6565191],[-9.1545246,38.6564039],[-9.1544925,38.6562577],[-9.1544593,38.6561059],[-9.1543966,38.6558364],[-9.154335,38.6555642],[-9.1542989,38.6553856],[-9.1542852,38.6553176],[-9.1542786,38.6552932],[-9.1542343,38.6551161],[-9.1541572,38.654806],[-9.1541112,38.6546205],[-9.1540369,38.6543056],[-9.1540166,38.6542193],[-9.1539841,38.6540575],[-9.1538434,38.6534733],[-9.1532389,38.6509622],[-9.1531992,38.6507983],[-9.1531644,38.650616],[-9.1531549,38.6505617],[-9.1531295,38.650417],[-9.1531107,38.6502599],[-9.1530893,38.6500312],[-9.1530799,38.649917],[-9.1530732,38.6498347],[-9.1530693,38.6496753],[-9.1530705,38.6494513],[-9.1530789,38.6492318],[-9.1530987,38.6489706],[-9.1531099,38.6488489],[-9.1531471,38.64853],[-9.1531818,38.6482427],[-9.1532234,38.6478907],[-9.153234,38.647804],[-9.1532475,38.6476938],[-9.153256,38.6475644],[-9.1532586,38.6474471],[-9.1532533,38.6473381],[-9.1532479,38.6472355],[-9.1532372,38.6471056],[-9.1532211,38.6469925],[-9.153197,38.6468752],[-9.1526429,38.64448],[-9.1524996,38.6438606],[-9.152462,38.6437203],[-9.1524057,38.6435485],[-9.1523038,38.6433055],[-9.1522153,38.6431316],[-9.1520218,38.6428188],[-9.1519979,38.642783],[-9.151952,38.6427142],[-9.1518024,38.6424871],[-9.1516279,38.6422224],[-9.1515947,38.6421722],[-9.1510025,38.641276],[-9.1509048,38.6411311],[-9.1508152,38.6409926],[-9.1507803,38.6409235],[-9.1507561,38.6408669],[-9.1507454,38.6408209],[-9.1507427,38.6407748],[-9.1507481,38.6407161],[-9.1507669,38.6406449],[-9.1507937,38.6405736],[-9.1508473,38.6405129],[-9.1517781,38.6398006],[-9.1518028,38.6397723],[-9.1518183,38.6397545],[-9.1518487,38.6397159],[-9.1519014,38.6396431],[-9.1519524,38.639568],[-9.1519739,38.6394968],[-9.15199,38.6394067],[-9.15199,38.6393187],[-9.1519846,38.6392642],[-9.1519655,38.6392032],[-9.1519437,38.6391202],[-9.1519096,38.6390254],[-9.1517754,38.6386525],[-9.1517244,38.6385666],[-9.1516681,38.6384933],[-9.1516091,38.6384409],[-9.1515012,38.6383384],[-9.1514723,38.638311],[-9.1514213,38.6382586],[-9.1513972,38.6382251],[-9.1513772,38.6381896],[-9.1513677,38.6381392],[-9.1513676,38.6381016],[-9.1513757,38.6380533],[-9.1515098,38.6375463],[-9.1515045,38.6374981],[-9.1514964,38.6374541],[-9.1514696,38.6373871],[-9.1514208,38.6373358],[-9.1513652,38.6372962],[-9.1510511,38.637075]]]},"id":"relation/7817932"},{"type":"Feature","properties":{"@id":"relation/7817935","colour":"#BCD019","from":"Cacilhas","name":"Linha 3: Cacilhas → Universidade","network":"Metro Transportes do Sul","operator":"Metro Transportes do Sul","public_transport:version":"2","ref":"3","route":"light_rail","to":"Universidade","type":"route","wikidata":"Q48868985","wikipedia":"pt:Linha 3 (MTS)"},"geometry":{"type":"MultiLineString","coordinates":[[[-9.1475062,38.6877336],[-9.1475035,38.6876966],[-9.1474925,38.6875468],[-9.1474787,38.6873595],[-9.1474707,38.6872988],[-9.1473882,38.6870186],[-9.1473755,38.6869684],[-9.147354,38.6868836],[-9.1473484,38.6868091],[-9.1473463,38.6867736],[-9.1473377,38.6867403],[-9.1473252,38.6867055],[-9.1473024,38.6866626],[-9.1472693,38.6866129],[-9.1469551,38.6861147],[-9.1468907,38.6860269],[-9.1468255,38.6858855],[-9.1467807,38.6857694],[-9.1467539,38.6856479],[-9.1467485,38.685493],[-9.146749,38.68547],[-9.1467529,38.6854207],[-9.1467582,38.6853526],[-9.1467617,38.6853305],[-9.1467754,38.685248],[-9.1467915,38.6851915],[-9.1468317,38.6851203],[-9.1468971,38.6850724],[-9.1469883,38.6850347],[-9.1470158,38.685032],[-9.1470524,38.6850283],[-9.1471118,38.6850225],[-9.1471843,38.6850155],[-9.1472758,38.6850068],[-9.147401,38.684994],[-9.1479863,38.6849343],[-9.1483506,38.6848708],[-9.1485298,38.68483],[-9.1488812,38.6847306],[-9.149222,38.6846076],[-9.1493953,38.6845157],[-9.1494495,38.6844903],[-9.1497135,38.6843668],[-9.1499681,38.6842206],[-9.1501972,38.6840797],[-9.1504975,38.6838722],[-9.1506345,38.6837673],[-9.1510634,38.6834388],[-9.1512608,38.6832836],[-9.1515105,38.6830875],[-9.1518046,38.6828769],[-9.151964,38.6827628],[-9.1520075,38.6827292],[-9.1520168,38.682722],[-9.1520501,38.6826963],[-9.1520981,38.6826593],[-9.152293,38.6825089],[-9.1525355,38.6823214],[-9.1525646,38.6822989],[-9.1526353,38.6822443],[-9.1527745,38.6821306],[-9.1528463,38.682072],[-9.153034,38.6819506],[-9.1532298,38.6818291],[-9.1535946,38.6816093],[-9.154189,38.6812684],[-9.1543051,38.6812024],[-9.1543399,38.6811826],[-9.1553647,38.6805998],[-9.1555185,38.6805123],[-9.1556467,38.6804394],[-9.1556919,38.6804137],[-9.1560397,38.6802158],[-9.1560731,38.6801968],[-9.1562144,38.6801164],[-9.1563715,38.6800271],[-9.1571133,38.6797123],[-9.1572957,38.6796356],[-9.1576257,38.6795013],[-9.1579062,38.6793876],[-9.157937,38.6793752],[-9.1579885,38.6793544],[-9.1581355,38.6792951],[-9.1581839,38.6792756],[-9.1590342,38.6789328],[-9.1591929,38.6788667],[-9.1592701,38.6788346],[-9.1592983,38.6788248],[-9.1595301,38.678731],[-9.1606128,38.6782929],[-9.16185,38.6777736],[-9.1627113,38.6774067],[-9.1637113,38.6769806],[-9.1637797,38.6769514],[-9.1638379,38.6769242],[-9.163926,38.676879],[-9.1640192,38.6768252],[-9.164303,38.6766549],[-9.1645868,38.6764847],[-9.1646529,38.6764439],[-9.1647016,38.676411],[-9.1647675,38.6763665],[-9.1648008,38.6763404],[-9.1648279,38.6763192],[-9.1648949,38.6762645],[-9.1649774,38.6761972],[-9.1650667,38.6761037],[-9.1650953,38.6760679],[-9.1651206,38.6760361],[-9.1651463,38.6760056],[-9.1651647,38.6759836],[-9.16522,38.6759094],[-9.1652719,38.6758359],[-9.1653421,38.6757318],[-9.1661428,38.6745439],[-9.1662466,38.6743915],[-9.1663431,38.674245],[-9.1664719,38.6739748],[-9.1665678,38.6737149],[-9.1665993,38.6736091],[-9.1666108,38.6735705],[-9.1666349,38.6734699],[-9.166659,38.6733358],[-9.1666778,38.6731914],[-9.1666863,38.6730234],[-9.1666859,38.6728731],[-9.1666757,38.6727536],[-9.1666569,38.6726228],[-9.1666419,38.6725632],[-9.1666108,38.6724394],[-9.1666029,38.672402],[-9.1665998,38.6723614],[-9.1666009,38.6723219],[-9.1666111,38.6722627],[-9.1666245,38.672221],[-9.1666474,38.6721727],[-9.1666773,38.6721257],[-9.1667071,38.6720904],[-9.1667456,38.6720462],[-9.1668883,38.6718865],[-9.1674511,38.6712437],[-9.167502,38.6711853],[-9.1675415,38.6711077],[-9.167571,38.6710156],[-9.1675839,38.6709569],[-9.1675947,38.6709081],[-9.1676595,38.6705193],[-9.1676863,38.6704397],[-9.1677212,38.6703748],[-9.1677701,38.6703266],[-9.1678044,38.6702907],[-9.1678471,38.6702528],[-9.167942,38.6701782],[-9.1682473,38.6699381],[-9.1685191,38.6697444],[-9.1686607,38.6696526],[-9.1690096,38.6694431],[-9.1692683,38.6692877],[-9.1694557,38.6691754],[-9.1695417,38.669129],[-9.1696049,38.6690995],[-9.1696746,38.6690728],[-9.169739,38.6690539],[-9.1698239,38.6690338],[-9.170161,38.6689741],[-9.1704382,38.668925],[-9.1704848,38.6689172],[-9.1743976,38.6682288],[-9.1750987,38.66809],[-9.1751844,38.6680775],[-9.1752376,38.6680703],[-9.1752973,38.6680633],[-9.1753412,38.6680617],[-9.1754396,38.6680618],[-9.1755259,38.6680757],[-9.1756412,38.6681008],[-9.1757378,38.6681218],[-9.1758613,38.6681508],[-9.1759657,38.6681699],[-9.1760437,38.668178],[-9.1761186,38.6681762],[-9.1761831,38.6681592],[-9.1762527,38.668126],[-9.1763252,38.668082],[-9.176454,38.6679686],[-9.1766152,38.6678077],[-9.1767892,38.6676589],[-9.1769153,38.6675773],[-9.1771701,38.6674474],[-9.1775323,38.6672942],[-9.1780103,38.6670863],[-9.179219,38.6665694],[-9.1792413,38.6665599],[-9.1796634,38.6663897],[-9.1799968,38.6662386],[-9.1802765,38.666128],[-9.180364,38.6660904],[-9.1805149,38.6660167],[-9.1806274,38.6659898],[-9.180732,38.6659563],[-9.1808232,38.6659207],[-9.1810249,38.6658333],[-9.1819444,38.6654348],[-9.1821457,38.6653446],[-9.1822986,38.6652692],[-9.1825695,38.6651373],[-9.1828483,38.6650118],[-9.183637,38.6646702],[-9.1838006,38.6645948],[-9.183948,38.6645155],[-9.1841634,38.6643857],[-9.184364,38.6642648],[-9.1845422,38.6641668],[-9.1846239,38.6641259],[-9.1846804,38.6641131],[-9.1847773,38.6641029],[-9.1848492,38.6641092],[-9.1849566,38.6641257],[-9.1852867,38.6641937],[-9.1853807,38.6642143],[-9.1855886,38.6642591],[-9.1856414,38.664271],[-9.1856923,38.664282],[-9.1857501,38.6642916],[-9.1858185,38.6642959],[-9.1858691,38.6642953],[-9.1859044,38.6642906],[-9.1859406,38.6642883],[-9.185946,38.664288],[-9.1860036,38.6642764],[-9.1860583,38.6642602],[-9.1860729,38.6642552],[-9.1861008,38.6642456],[-9.186129,38.6642345],[-9.1861666,38.6642197],[-9.186249,38.6641841],[-9.1864103,38.664111],[-9.1869735,38.6638557],[-9.1871291,38.6638034],[-9.1873276,38.6637489],[-9.1875448,38.6637196],[-9.1878372,38.6637049],[-9.188151,38.6637112],[-9.1884005,38.6637217],[-9.1886523,38.6637461],[-9.1887884,38.6637636],[-9.1898185,38.6638985],[-9.1900107,38.6639237],[-9.1900391,38.6639274],[-9.190349,38.6639691],[-9.190661,38.6640111],[-9.1906894,38.6640149],[-9.1910946,38.6640704],[-9.1911747,38.6640794],[-9.1912562,38.6640855],[-9.1913798,38.6640882],[-9.1915772,38.6640752],[-9.1917945,38.6640584],[-9.1919286,38.6640584],[-9.1920922,38.6640857],[-9.19217,38.6641171],[-9.1922371,38.6641527],[-9.1923148,38.6642134],[-9.1923792,38.6642867],[-9.1924543,38.6643914],[-9.192641,38.664678],[-9.1929822,38.6652019],[-9.1930927,38.6653716],[-9.193149,38.665447],[-9.1932134,38.6654993],[-9.1932643,38.6655244],[-9.193326,38.6655496],[-9.1933877,38.6655642],[-9.1934521,38.6655747],[-9.1935299,38.6655747],[-9.1937837,38.6655611],[-9.1939937,38.6655498],[-9.1943398,38.6655312],[-9.1944779,38.6655237],[-9.1948888,38.6655016],[-9.1951017,38.6654888],[-9.1952706,38.6654595],[-9.1954575,38.6654116],[-9.195571,38.6653632],[-9.1956935,38.6653027],[-9.1958795,38.6652145],[-9.1960155,38.6651488],[-9.1960485,38.6651328],[-9.1962201,38.6650721],[-9.1964186,38.6650197],[-9.1965893,38.6649885],[-9.1967784,38.6649774],[-9.1969215,38.6649725],[-9.1971319,38.6649644],[-9.1973328,38.6649567],[-9.1973815,38.6649548],[-9.1975047,38.6649512],[-9.1976632,38.6649464],[-9.1978268,38.664936],[-9.1979984,38.6649171],[-9.1981584,38.6648964],[-9.1983793,38.6648627],[-9.1989399,38.6647726],[-9.1994073,38.6647019],[-9.1998961,38.6646223],[-9.1999532,38.664613],[-9.2003039,38.6645555],[-9.2006237,38.6645042],[-9.2006544,38.6645],[-9.2007558,38.6644839],[-9.2008119,38.664475],[-9.2011025,38.6644271],[-9.2011509,38.6644185],[-9.2014116,38.6643747],[-9.2021961,38.6642427],[-9.2025224,38.6641823],[-9.2026172,38.6641631],[-9.2026914,38.6641488],[-9.203754,38.6639187],[-9.2040258,38.6638599],[-9.2040663,38.663851],[-9.2042111,38.6638191],[-9.2042666,38.663807],[-9.2042974,38.6638002],[-9.204686,38.6637195],[-9.2047171,38.663713],[-9.2047352,38.6637092],[-9.2047726,38.6637026],[-9.2047966,38.6636984],[-9.2048573,38.6636888],[-9.2048693,38.6636873],[-9.2049045,38.6636827],[-9.2049181,38.6636811],[-9.204935,38.6636792],[-9.2049617,38.6636761],[-9.2049782,38.6636744],[-9.2050194,38.6636702],[-9.2050644,38.6636666],[-9.2051107,38.6636641],[-9.2051633,38.6636621],[-9.2055055,38.6636553],[-9.2061181,38.6636499],[-9.2063614,38.6636477],[-9.2065152,38.6636463],[-9.2068343,38.6636417],[-9.2068545,38.6636414],[-9.2071743,38.6636386]]]},"id":"relation/7817935"},{"type":"Feature","properties":{"@id":"relation/14611342","colour":"#01A3E1","from":"Corroios","name":"Linha 1: Corroios → Cacilhas","network":"Metro Transportes do Sul","operator":"Metro Transportes do Sul","public_transport:version":"2","ref":"1","route":"light_rail","to":"Cacilhas","type":"route","wikidata":"Q48868979","wikipedia":"pt:Linha 1 (MTS)"},"geometry":{"type":"MultiLineString","coordinates":[[[-9.1472885,38.687744],[-9.1472866,38.6877193],[-9.1472738,38.6875541],[-9.1472571,38.6873378],[-9.1472592,38.6873002],[-9.1472913,38.6870688],[-9.1473025,38.6869686],[-9.147312,38.6868835],[-9.1473084,38.6868269],[-9.1473031,38.6867853],[-9.147292,38.6867469],[-9.1472762,38.6867055],[-9.1472561,38.6866652],[-9.1472277,38.686621],[-9.1470964,38.6864123],[-9.1470581,38.6863504],[-9.1468156,38.6859766],[-9.1467619,38.6858657],[-9.1467324,38.6857568],[-9.1467163,38.6856396],[-9.1467137,38.6855307],[-9.1467171,38.6854669],[-9.1467208,38.685418],[-9.1467263,38.685346],[-9.1467287,38.6853167],[-9.1467347,38.6852425],[-9.1467521,38.6851814],[-9.1467974,38.6851014],[-9.146873,38.685046],[-9.146973,38.6850046],[-9.1470141,38.6849961],[-9.1470518,38.6849882],[-9.1470936,38.6849821],[-9.1471074,38.6849806],[-9.1471757,38.684973],[-9.1472596,38.6849655],[-9.1475839,38.684933],[-9.1480013,38.6848869],[-9.1482666,38.6848434],[-9.148556,38.6847813],[-9.1488137,38.6847067],[-9.1490823,38.684616],[-9.1493765,38.6844886],[-9.1496916,38.6843411],[-9.149944,38.6841964],[-9.1501719,38.6840561],[-9.1504236,38.6838822],[-9.1504706,38.6838497],[-9.1510356,38.683417],[-9.1512336,38.6832612],[-9.1514829,38.6830656],[-9.1517753,38.6828541],[-9.1519336,38.6827395],[-9.1519777,38.6827055],[-9.1519891,38.6826967],[-9.1520205,38.6826725],[-9.1522636,38.6824853],[-9.1525059,38.6822975],[-9.1525359,38.6822743],[-9.1526061,38.6822199],[-9.1527483,38.6821044],[-9.1528087,38.6820553],[-9.1529992,38.6819296],[-9.1531923,38.6818145],[-9.1535705,38.6815967],[-9.1541734,38.6812472],[-9.1542866,38.6811826],[-9.1543215,38.6811627],[-9.1553452,38.6805788],[-9.1554989,38.6804912],[-9.1556261,38.6804186],[-9.1556727,38.6803919],[-9.1560182,38.6801942],[-9.1560514,38.6801752],[-9.1561951,38.680093],[-9.1563525,38.6800029],[-9.1572075,38.679634],[-9.1572766,38.6796063],[-9.1576059,38.6794731],[-9.1578875,38.6793584],[-9.1579186,38.6793459],[-9.1579528,38.6793322],[-9.1581166,38.6792664],[-9.1581667,38.6792461],[-9.1590151,38.6789028],[-9.1592157,38.6788208],[-9.1593099,38.6787834],[-9.1595114,38.6787017],[-9.1605927,38.6782636],[-9.1618307,38.6777444],[-9.1626962,38.6773758],[-9.1630303,38.6772333],[-9.1634177,38.677068],[-9.1635429,38.6770088],[-9.1636127,38.6769734],[-9.1637751,38.6768816],[-9.1638302,38.6768488],[-9.1639634,38.6767695],[-9.1642479,38.6765989],[-9.1645323,38.6764283],[-9.1646461,38.6763579],[-9.1647046,38.6763214],[-9.1647392,38.6762977],[-9.164774,38.6762738],[-9.1648353,38.676233],[-9.1648894,38.6761871],[-9.1649473,38.676137],[-9.1650037,38.6760856],[-9.1650507,38.6760369],[-9.1650784,38.6760082],[-9.1651051,38.6759789],[-9.1651287,38.6759517],[-9.1651563,38.6759199],[-9.1651824,38.6758856],[-9.1661157,38.6745326],[-9.1662064,38.6743832],[-9.1663324,38.6741465],[-9.1664209,38.6739204],[-9.1664908,38.6736985],[-9.1665116,38.6735955],[-9.1665197,38.6735555],[-9.1665431,38.6734581],[-9.1665667,38.6733271],[-9.166585,38.6731861],[-9.1665943,38.6730215],[-9.1666069,38.6728798],[-9.1666082,38.6727578],[-9.1666027,38.6726314],[-9.1665625,38.6724465],[-9.166456,38.6720526],[-9.1662166,38.6711371],[-9.1661248,38.6707802],[-9.1658369,38.6696965],[-9.1657849,38.6695006],[-9.1657136,38.6692317],[-9.1656996,38.6691597],[-9.1656939,38.6690729],[-9.1657023,38.668987],[-9.1657788,38.6685772],[-9.1658022,38.6684341],[-9.1658092,38.66839],[-9.1658133,38.6683247],[-9.1658116,38.6682761],[-9.1658015,38.6682272],[-9.1657809,38.6681654],[-9.1657478,38.6681074],[-9.1657219,38.6680681],[-9.1656586,38.6679995],[-9.165587,38.6679493],[-9.1655,38.6679163],[-9.1651134,38.667805],[-9.1647993,38.6677148],[-9.1644545,38.6676154],[-9.1642717,38.6675628],[-9.1640321,38.6674938],[-9.1637967,38.6674284],[-9.1636604,38.6673931],[-9.1636052,38.6673809],[-9.1635385,38.6673645],[-9.1634132,38.6673383],[-9.1632526,38.6673152],[-9.1629335,38.6672796],[-9.1627189,38.6672586],[-9.1625472,38.6672335],[-9.1623001,38.6671938],[-9.1620747,38.6671456],[-9.1618012,38.6670724],[-9.1615598,38.6669928],[-9.1610855,38.666824],[-9.1606455,38.666666],[-9.1605721,38.6666371],[-9.1604902,38.6665997],[-9.1604387,38.6665684],[-9.1603815,38.6665304],[-9.160337,38.6664865],[-9.1603112,38.6664506],[-9.1602842,38.6664111],[-9.1602585,38.6663549],[-9.1602409,38.6662815],[-9.1602341,38.6662077],[-9.1602315,38.6661738],[-9.1601456,38.665049],[-9.1601399,38.6649812],[-9.1601293,38.664919],[-9.1601186,38.6648479],[-9.1601054,38.6647757],[-9.1600894,38.664709],[-9.160068,38.6646107],[-9.1600494,38.6645405],[-9.160023,38.6644496],[-9.1599918,38.6643677],[-9.1599464,38.6642634],[-9.1599033,38.664161],[-9.1598608,38.6640759],[-9.1598489,38.664052],[-9.1598176,38.6639892],[-9.15974,38.6638641],[-9.1597029,38.6638062],[-9.1595268,38.663556],[-9.1587545,38.6625091],[-9.1577254,38.66111],[-9.1576784,38.6610462],[-9.1576241,38.6609799],[-9.1575583,38.6608902],[-9.1575187,38.6608361],[-9.1574643,38.6607544],[-9.1573013,38.6605332],[-9.1571162,38.6602838],[-9.1559853,38.6587545],[-9.1554071,38.6579685],[-9.1552611,38.6577706],[-9.1551043,38.6575581],[-9.1549526,38.6573517],[-9.154801,38.6571444],[-9.1547419,38.6570407],[-9.1546668,38.6569213],[-9.1545917,38.6567642],[-9.1545461,38.6566364],[-9.154528,38.6565742],[-9.1544978,38.6564647],[-9.1544187,38.6561118],[-9.1543611,38.6558417],[-9.154305,38.6555687],[-9.1542641,38.6553907],[-9.1542537,38.6553455],[-9.1542489,38.6553244],[-9.154242,38.6552987],[-9.1541245,38.6548104],[-9.1539867,38.6542236],[-9.1539492,38.6540625],[-9.1539292,38.653981],[-9.1538076,38.6534785],[-9.1533065,38.6514183],[-9.153197,38.6509558],[-9.1531617,38.6508004],[-9.1531188,38.6506056],[-9.1531131,38.6505644],[-9.1530923,38.6504133],[-9.1530705,38.6502557],[-9.1530448,38.6500394],[-9.153038,38.6499173],[-9.1530329,38.6498263],[-9.1530303,38.6496725],[-9.1530307,38.6496],[-9.1530314,38.6494508],[-9.1530399,38.6492305],[-9.1530583,38.6489842],[-9.1530709,38.6488471],[-9.1531083,38.6485261],[-9.1531395,38.6482401],[-9.1531566,38.6481158],[-9.1531844,38.6478878],[-9.1532085,38.6476916],[-9.1532169,38.6475633],[-9.1532195,38.6474474],[-9.1532142,38.6473393],[-9.1532104,38.6472376],[-9.1531982,38.6471083],[-9.1531823,38.6469966],[-9.1531584,38.6468803],[-9.1526041,38.6444842],[-9.1524612,38.6438665],[-9.1524239,38.6437272],[-9.1523681,38.6435571],[-9.152267,38.6433159],[-9.1521795,38.6431441],[-9.1521386,38.6430798],[-9.1520031,38.6428664],[-9.1519659,38.6428065],[-9.1519173,38.6427281],[-9.151768,38.6425018],[-9.1515931,38.6422364],[-9.1515543,38.6421774],[-9.1510028,38.6413379],[-9.1509702,38.6412883],[-9.1507883,38.6410115],[-9.1507472,38.6409329],[-9.1507219,38.6408738],[-9.1507103,38.640824],[-9.1507074,38.6407744],[-9.1507131,38.6407123],[-9.1507327,38.6406382],[-9.1507615,38.6405616],[-9.1508202,38.6404951],[-9.1517509,38.6397829],[-9.1517719,38.6397588],[-9.1517887,38.6397395],[-9.1518207,38.6397001],[-9.1518621,38.6396498],[-9.1519191,38.6395582],[-9.1519392,38.6394917],[-9.1519548,38.6394048],[-9.1519548,38.6393198],[-9.1519497,38.6392687],[-9.1519355,38.6392098],[-9.1519036,38.6391271],[-9.1518059,38.6388457],[-9.1517515,38.6386889],[-9.1517422,38.638662],[-9.1516932,38.6385795],[-9.1516395,38.6385096],[-9.1515823,38.6384587],[-9.1514047,38.6383014],[-9.1513725,38.63827],[-9.1513564,38.6382449],[-9.1513428,38.6382234],[-9.1513339,38.6382011],[-9.1513218,38.6381531],[-9.1513218,38.6380698],[-9.1513194,38.638053],[-9.1513275,38.6380216],[-9.1514134,38.6377276],[-9.1514309,38.6376454],[-9.1514453,38.6375859],[-9.151453,38.6375345],[-9.151453,38.6375043],[-9.1514514,38.6374836],[-9.1514469,38.6374629],[-9.1514403,38.6374444],[-9.1514298,38.6374215],[-9.1514155,38.637396],[-9.1513928,38.6373676],[-9.1513686,38.6373506],[-9.1513329,38.6373236],[-9.1510205,38.637098]]]},"id":"relation/14611342"}]}